{
    "cards": [
        {
            "english": "(measure word)",
            "chinese": "只（量词）",
            "pinyin": "zhī",
            "state": "New",
            "last_reviewed_session": 0
        },
        {
            "english": "a while",
            "chinese": "一会儿",
            "pinyin": "yíhuìr",
            "state": "New",
            "last_reviewed_session": 0
        },
        {
            "english": "about",
            "chinese": "关于",
            "pinyin": "guānyú",
            "state": "New",
            "last_reviewed_session": 0
        },
        {
            "english": "according to",
            "chinese": "根据",
            "pinyin": "gēnjù",
            "state": "New",
            "last_reviewed_session": 0
        },
        {
            "english": "achievement",
            "chinese": "成绩",
            "pinyin": "chéngjì",
            "state": "New",
            "last_reviewed_session": 0
        },
        {
            "english": "actually",
            "chinese": "其实",
            "pinyin": "qíshí",
            "state": "New",
            "last_reviewed_session": 0
        },
        {
            "english": "After, through",
            "chinese": "经过",
            "pinyin": "jīngguò",
            "state": "New",
            "last_reviewed_session": 0
        },
        {
            "english": "again",
            "chinese": "又",
            "pinyin": "yòu",
            "state": "New",
            "last_reviewed_session": 0
        },
        {
            "english": "Agree",
            "chinese": "同意",
            "pinyin": "tóngyì",
            "state": "New",
            "last_reviewed_session": 0
        },
        {
            "english": "ah",
            "chinese": "啊",
            "pinyin": "a",
            "state": "New",
            "last_reviewed_session": 0
        },
        {
            "english": "Air conditioner",
            "chinese": "空调",
            "pinyin": "kōngtiáo",
            "state": "New",
            "last_reviewed_session": 0
        },
        {
            "english": "almost",
            "chinese": "几乎",
            "pinyin": "jīhū",
            "state": "New",
            "last_reviewed_session": 0
        },
        {
            "english": "Altogether",
            "chinese": "一共",
            "pinyin": "yígòng",
            "state": "New",
            "last_reviewed_session": 0
        },
        {
            "english": "always",
            "chinese": "一直",
            "pinyin": "yìzhí",
            "state": "New",
            "last_reviewed_session": 0
        },
        {
            "english": "always",
            "chinese": "总是",
            "pinyin": "zǒngshì",
            "state": "New",
            "last_reviewed_session": 0
        },
        {
            "english": "Animal",
            "chinese": "动物",
            "pinyin": "dòngwù",
            "state": "New",
            "last_reviewed_session": 0
        },
        {
            "english": "Answer",
            "chinese": "回答",
            "pinyin": "huídá",
            "state": "New",
            "last_reviewed_session": 0
        },
        {
            "english": "ask for leave",
            "chinese": "请假",
            "pinyin": "qǐngjià",
            "state": "New",
            "last_reviewed_session": 0
        },
        {
            "english": "aunt",
            "chinese": "阿姨",
            "pinyin": "āyí",
            "state": "New",
            "last_reviewed_session": 0
        },
        {
            "english": "autumn",
            "chinese": "秋",
            "pinyin": "qiū",
            "state": "New",
            "last_reviewed_session": 0
        },
        {
            "english": "bad",
            "chinese": "差",
            "pinyin": "chà",
            "state": "New",
            "last_reviewed_session": 0
        },
        {
            "english": "bad",
            "chinese": "坏",
            "pinyin": "huài",
            "state": "New",
            "last_reviewed_session": 0
        },
        {
            "english": "Banana",
            "chinese": "香蕉",
            "pinyin": "xiāngjiāo",
            "state": "New",
            "last_reviewed_session": 0
        },
        {
            "english": "Bank",
            "chinese": "银行",
            "pinyin": "yínháng",
            "state": "New",
            "last_reviewed_session": 0
        },
        {
            "english": "Be careful",
            "chinese": "注意",
            "pinyin": "zhùyì",
            "state": "New",
            "last_reviewed_session": 0
        },
        {
            "english": "be intretested in",
            "chinese": "感兴趣",
            "pinyin": "gǎnxìngqù",
            "state": "New",
            "last_reviewed_session": 0
        },
        {
            "english": "Be quiet",
            "chinese": "安静",
            "pinyin": "ānjìng",
            "state": "New",
            "last_reviewed_session": 0
        },
        {
            "english": "Be willing",
            "chinese": "愿意",
            "pinyin": "yuànyì",
            "state": "New",
            "last_reviewed_session": 0
        },
        {
            "english": "Beer",
            "chinese": "啤酒",
            "pinyin": "píjiǔ",
            "state": "New",
            "last_reviewed_session": 0
        },
        {
            "english": "before",
            "chinese": "以前",
            "pinyin": "yǐqián",
            "state": "New",
            "last_reviewed_session": 0
        },
        {
            "english": "believe",
            "chinese": "相信",
            "pinyin": "xiāngxìn",
            "state": "New",
            "last_reviewed_session": 0
        },
        {
            "english": "belt",
            "chinese": "带",
            "pinyin": "dài",
            "state": "New",
            "last_reviewed_session": 0
        },
        {
            "english": "Bicycle",
            "chinese": "自行车",
            "pinyin": "zìxíngchē",
            "state": "New",
            "last_reviewed_session": 0
        },
        {
            "english": "bird",
            "chinese": "鸟",
            "pinyin": "niǎo",
            "state": "New",
            "last_reviewed_session": 0
        },
        {
            "english": "blackboard",
            "chinese": "黑板",
            "pinyin": "hēibǎn",
            "state": "New",
            "last_reviewed_session": 0
        },
        {
            "english": "blue",
            "chinese": "蓝",
            "pinyin": "lán",
            "state": "New",
            "last_reviewed_session": 0
        },
        {
            "english": "borrow",
            "chinese": "借",
            "pinyin": "jiè",
            "state": "New",
            "last_reviewed_session": 0
        },
        {
            "english": "bottle",
            "chinese": "瓶子",
            "pinyin": "píngzi",
            "state": "New",
            "last_reviewed_session": 0
        },
        {
            "english": "bowl",
            "chinese": "碗",
            "pinyin": "wǎn",
            "state": "New",
            "last_reviewed_session": 0
        },
        {
            "english": "Bread",
            "chinese": "面包",
            "pinyin": "miànbāo",
            "state": "New",
            "last_reviewed_session": 0
        },
        {
            "english": "Brush one’s teeth",
            "chinese": "刷牙",
            "pinyin": "shuāyá",
            "state": "New",
            "last_reviewed_session": 0
        },
        {
            "english": "Cake",
            "chinese": "蛋糕",
            "pinyin": "dàngāo",
            "state": "New",
            "last_reviewed_session": 0
        },
        {
            "english": "Camera",
            "chinese": "照相机",
            "pinyin": "zhàoxiàngjī",
            "state": "New",
            "last_reviewed_session": 0
        },
        {
            "english": "Car",
            "chinese": "辆",
            "pinyin": "liàng",
            "state": "New",
            "last_reviewed_session": 0
        },
        {
            "english": "Care for",
            "chinese": "关心",
            "pinyin": "guānxīn",
            "state": "New",
            "last_reviewed_session": 0
        },
        {
            "english": "Certain",
            "chinese": "一定",
            "pinyin": "yídìng",
            "state": "New",
            "last_reviewed_session": 0
        },
        {
            "english": "change",
            "chinese": "变化",
            "pinyin": "biànhuà",
            "state": "New",
            "last_reviewed_session": 0
        },
        {
            "english": "change",
            "chinese": "换",
            "pinyin": "huàn",
            "state": "New",
            "last_reviewed_session": 0
        },
        {
            "english": "chat",
            "chinese": "聊天",
            "pinyin": "liáotiān",
            "state": "New",
            "last_reviewed_session": 0
        },
        {
            "english": "Chinese",
            "chinese": "中文",
            "pinyin": "zhōngwén",
            "state": "New",
            "last_reviewed_session": 0
        },
        {
            "english": "Choice",
            "chinese": "选择",
            "pinyin": "xuǎnzé",
            "state": "New",
            "last_reviewed_session": 0
        },
        {
            "english": "chopsticks",
            "chinese": "筷子",
            "pinyin": "kuàizi",
            "state": "New",
            "last_reviewed_session": 0
        },
        {
            "english": "City",
            "chinese": "城市",
            "pinyin": "chéngshì",
            "state": "New",
            "last_reviewed_session": 0
        },
        {
            "english": "class",
            "chinese": "班",
            "pinyin": "bān",
            "state": "New",
            "last_reviewed_session": 0
        },
        {
            "english": "Clean",
            "chinese": "打扫",
            "pinyin": "dǎsǎo",
            "state": "New",
            "last_reviewed_session": 0
        },
        {
            "english": "clean",
            "chinese": "干净",
            "pinyin": "gānjìng",
            "state": "New",
            "last_reviewed_session": 0
        },
        {
            "english": "clear",
            "chinese": "明白",
            "pinyin": "míngbai",
            "state": "New",
            "last_reviewed_session": 0
        },
        {
            "english": "clear",
            "chinese": "清楚",
            "pinyin": "qīngchu",
            "state": "New",
            "last_reviewed_session": 0
        },
        {
            "english": "clever",
            "chinese": "聪明",
            "pinyin": "cōngming",
            "state": "New",
            "last_reviewed_session": 0
        },
        {
            "english": "Colleague",
            "chinese": "同事",
            "pinyin": "tóngshì",
            "state": "New",
            "last_reviewed_session": 0
        },
        {
            "english": "comfortable",
            "chinese": "舒服",
            "pinyin": "shūfu",
            "state": "New",
            "last_reviewed_session": 0
        },
        {
            "english": "commonly",
            "chinese": "一般",
            "pinyin": "yìbān",
            "state": "New",
            "last_reviewed_session": 0
        },
        {
            "english": "compare",
            "chinese": "比较",
            "pinyin": "bǐjiào",
            "state": "New",
            "last_reviewed_session": 0
        },
        {
            "english": "complete",
            "chinese": "完成",
            "pinyin": "wánchéng",
            "state": "New",
            "last_reviewed_session": 0
        },
        {
            "english": "convenient",
            "chinese": "方便",
            "pinyin": "fāngbiàn",
            "state": "New",
            "last_reviewed_session": 0
        },
        {
            "english": "Country",
            "chinese": "国家",
            "pinyin": "guójiā",
            "state": "New",
            "last_reviewed_session": 0
        },
        {
            "english": "cover",
            "chinese": "被",
            "pinyin": "bèi",
            "state": "New",
            "last_reviewed_session": 0
        },
        {
            "english": "Credit card",
            "chinese": "信用卡",
            "pinyin": "xìnyòngkǎ",
            "state": "New",
            "last_reviewed_session": 0
        },
        {
            "english": "cry",
            "chinese": "哭",
            "pinyin": "kū",
            "state": "New",
            "last_reviewed_session": 0
        },
        {
            "english": "Culture",
            "chinese": "文化",
            "pinyin": "wénhuà",
            "state": "New",
            "last_reviewed_session": 0
        },
        {
            "english": "Decision",
            "chinese": "决定",
            "pinyin": "juédìng",
            "state": "New",
            "last_reviewed_session": 0
        },
        {
            "english": "Dictionaries",
            "chinese": "词典",
            "pinyin": "cídiǎn",
            "state": "New",
            "last_reviewed_session": 0
        },
        {
            "english": "difficult",
            "chinese": "难",
            "pinyin": "nán",
            "state": "New",
            "last_reviewed_session": 0
        },
        {
            "english": "discharge",
            "chinese": "放",
            "pinyin": "fàng",
            "state": "New",
            "last_reviewed_session": 0
        },
        {
            "english": "Don’t worry",
            "chinese": "放心",
            "pinyin": "fàngxīn",
            "state": "New",
            "last_reviewed_session": 0
        },
        {
            "english": "double, pair",
            "chinese": "双",
            "pinyin": "shuāng",
            "state": "New",
            "last_reviewed_session": 0
        },
        {
            "english": "Drinks",
            "chinese": "饮料",
            "pinyin": "yǐnliào",
            "state": "New",
            "last_reviewed_session": 0
        },
        {
            "english": "Driver",
            "chinese": "司机",
            "pinyin": "sījī",
            "state": "New",
            "last_reviewed_session": 0
        },
        {
            "english": "earnest",
            "chinese": "认真",
            "pinyin": "rènzhēn",
            "state": "New",
            "last_reviewed_session": 0
        },
        {
            "english": "Ears",
            "chinese": "耳朵",
            "pinyin": "ěrduo",
            "state": "New",
            "last_reviewed_session": 0
        },
        {
            "english": "easily",
            "chinese": "容易",
            "pinyin": "róngyì",
            "state": "New",
            "last_reviewed_session": 0
        },
        {
            "english": "east",
            "chinese": "东",
            "pinyin": "dōng",
            "state": "New",
            "last_reviewed_session": 0
        },
        {
            "english": "element; yuan",
            "chinese": "元",
            "pinyin": "yuán",
            "state": "New",
            "last_reviewed_session": 0
        },
        {
            "english": "Elevator.",
            "chinese": "电梯",
            "pinyin": "diàntī",
            "state": "New",
            "last_reviewed_session": 0
        },
        {
            "english": "E-mail",
            "chinese": "电子邮件",
            "pinyin": "diànzǐyóujiàn",
            "state": "New",
            "last_reviewed_session": 0
        },
        {
            "english": "encounter",
            "chinese": "遇到",
            "pinyin": "yùdào",
            "state": "New",
            "last_reviewed_session": 0
        },
        {
            "english": "End",
            "chinese": "结束",
            "pinyin": "jiéshù",
            "state": "New",
            "last_reviewed_session": 0
        },
        {
            "english": "Enthusiasm",
            "chinese": "热情",
            "pinyin": "rèqíng",
            "state": "New",
            "last_reviewed_session": 0
        },
        {
            "english": "Environment",
            "chinese": "环境",
            "pinyin": "huánjìng",
            "state": "New",
            "last_reviewed_session": 0
        },
        {
            "english": "equally",
            "chinese": "一样",
            "pinyin": "yíyàng",
            "state": "New",
            "last_reviewed_session": 0
        },
        {
            "english": "Especially",
            "chinese": "特别",
            "pinyin": "tèbié",
            "state": "New",
            "last_reviewed_session": 0
        },
        {
            "english": "except, besides",
            "chinese": "除了",
            "pinyin": "chúle",
            "state": "New",
            "last_reviewed_session": 0
        },
        {
            "english": "extremely",
            "chinese": "极",
            "pinyin": "jí",
            "state": "New",
            "last_reviewed_session": 0
        },
        {
            "english": "face",
            "chinese": "脸",
            "pinyin": "liǎn",
            "state": "New",
            "last_reviewed_session": 0
        },
        {
            "english": "Famous",
            "chinese": "有名",
            "pinyin": "yǒumíng",
            "state": "New",
            "last_reviewed_session": 0
        },
        {
            "english": "fat",
            "chinese": "胖",
            "pinyin": "pàng",
            "state": "New",
            "last_reviewed_session": 0
        },
        {
            "english": "Fear",
            "chinese": "害怕",
            "pinyin": "hàipà",
            "state": "New",
            "last_reviewed_session": 0
        },
        {
            "english": "festival",
            "chinese": "节日",
            "pinyin": "jiérì",
            "state": "New",
            "last_reviewed_session": 0
        },
        {
            "english": "finally",
            "chinese": "终于",
            "pinyin": "zhōngyú",
            "state": "New",
            "last_reviewed_session": 0
        },
        {
            "english": "find, discover",
            "chinese": "发现",
            "pinyin": "fāxiàn",
            "state": "New",
            "last_reviewed_session": 0
        },
        {
            "english": "first",
            "chinese": "先",
            "pinyin": "xiān",
            "state": "New",
            "last_reviewed_session": 0
        },
        {
            "english": "floor",
            "chinese": "楼",
            "pinyin": "lóu",
            "state": "New",
            "last_reviewed_session": 0
        },
        {
            "english": "flower",
            "chinese": "花（名词）",
            "pinyin": "huā",
            "state": "New",
            "last_reviewed_session": 0
        },
        {
            "english": "foot",
            "chinese": "脚",
            "pinyin": "jiǎo",
            "state": "New",
            "last_reviewed_session": 0
        },
        {
            "english": "for",
            "chinese": "为",
            "pinyin": "wèi",
            "state": "New",
            "last_reviewed_session": 0
        },
        {
            "english": "forget",
            "chinese": "忘记",
            "pinyin": "wàngjì",
            "state": "New",
            "last_reviewed_session": 0
        },
        {
            "english": "fresh",
            "chinese": "新鲜",
            "pinyin": "xīnxiān",
            "state": "New",
            "last_reviewed_session": 0
        },
        {
            "english": "full",
            "chinese": "饱",
            "pinyin": "bǎo",
            "state": "New",
            "last_reviewed_session": 0
        },
        {
            "english": "Game",
            "chinese": "游戏",
            "pinyin": "yóuxì",
            "state": "New",
            "last_reviewed_session": 0
        },
        {
            "english": "get a cold",
            "chinese": "感冒",
            "pinyin": "gǎnmào",
            "state": "New",
            "last_reviewed_session": 0
        },
        {
            "english": "get angry",
            "chinese": "生气",
            "pinyin": "shēngqì",
            "state": "New",
            "last_reviewed_session": 0
        },
        {
            "english": "get up",
            "chinese": "起来",
            "pinyin": "qǐlái",
            "state": "New",
            "last_reviewed_session": 0
        },
        {
            "english": "gift",
            "chinese": "礼物",
            "pinyin": "lǐwù",
            "state": "New",
            "last_reviewed_session": 0
        },
        {
            "english": "grade",
            "chinese": "年级",
            "pinyin": "niánjí",
            "state": "New",
            "last_reviewed_session": 0
        },
        {
            "english": "grandma",
            "chinese": "奶奶",
            "pinyin": "nǎinai",
            "state": "New",
            "last_reviewed_session": 0
        },
        {
            "english": "grandpa",
            "chinese": "爷爷",
            "pinyin": "yéye",
            "state": "New",
            "last_reviewed_session": 0
        },
        {
            "english": "grass",
            "chinese": "草",
            "pinyin": "cǎo",
            "state": "New",
            "last_reviewed_session": 0
        },
        {
            "english": "green",
            "chinese": "绿",
            "pinyin": "lǜ",
            "state": "New",
            "last_reviewed_session": 0
        },
        {
            "english": "grow",
            "chinese": "长（动词）",
            "pinyin": "zhǎng",
            "state": "New",
            "last_reviewed_session": 0
        },
        {
            "english": "Guest",
            "chinese": "客人",
            "pinyin": "kèrén",
            "state": "New",
            "last_reviewed_session": 0
        },
        {
            "english": "Habit",
            "chinese": "习惯",
            "pinyin": "xíguàn",
            "state": "New",
            "last_reviewed_session": 0
        },
        {
            "english": "Hair",
            "chinese": "头发",
            "pinyin": "tóufa",
            "state": "New",
            "last_reviewed_session": 0
        },
        {
            "english": "half",
            "chinese": "半",
            "pinyin": "bàn",
            "state": "New",
            "last_reviewed_session": 0
        },
        {
            "english": "Hat",
            "chinese": "帽子",
            "pinyin": "màozi",
            "state": "New",
            "last_reviewed_session": 0
        },
        {
            "english": "Have a fever",
            "chinese": "发烧",
            "pinyin": "fāshāo",
            "state": "New",
            "last_reviewed_session": 0
        },
        {
            "english": "Healthy",
            "chinese": "健康",
            "pinyin": "jiànkāng",
            "state": "New",
            "last_reviewed_session": 0
        },
        {
            "english": "height",
            "chinese": "个子",
            "pinyin": "gèzi",
            "state": "New",
            "last_reviewed_session": 0
        },
        {
            "english": "Help",
            "chinese": "帮忙",
            "pinyin": "bāngmáng",
            "state": "New",
            "last_reviewed_session": 0
        },
        {
            "english": "History",
            "chinese": "历史",
            "pinyin": "lìshǐ",
            "state": "New",
            "last_reviewed_session": 0
        },
        {
            "english": "hobby",
            "chinese": "爱好",
            "pinyin": "àihào",
            "state": "New",
            "last_reviewed_session": 0
        },
        {
            "english": "hold",
            "chinese": "把",
            "pinyin": "bǎ",
            "state": "New",
            "last_reviewed_session": 0
        },
        {
            "english": "homework",
            "chinese": "作业",
            "pinyin": "zuòyè",
            "state": "New",
            "last_reviewed_session": 0
        },
        {
            "english": "Horse",
            "chinese": "马",
            "pinyin": "mǎ",
            "state": "New",
            "last_reviewed_session": 0
        },
        {
            "english": "hungry",
            "chinese": "饿",
            "pinyin": "è",
            "state": "New",
            "last_reviewed_session": 0
        },
        {
            "english": "hurt",
            "chinese": "疼",
            "pinyin": "téng",
            "state": "New",
            "last_reviewed_session": 0
        },
        {
            "english": "If",
            "chinese": "如果",
            "pinyin": "rúguǒ",
            "state": "New",
            "last_reviewed_session": 0
        },
        {
            "english": "image",
            "chinese": "像",
            "pinyin": "xiàng",
            "state": "New",
            "last_reviewed_session": 0
        },
        {
            "english": "important",
            "chinese": "重要",
            "pinyin": "zhòngyào",
            "state": "New",
            "last_reviewed_session": 0
        },
        {
            "english": "in order to",
            "chinese": "为了",
            "pinyin": "wèile",
            "state": "New",
            "last_reviewed_session": 0
        },
        {
            "english": "increase",
            "chinese": "提高",
            "pinyin": "tígāo",
            "state": "New",
            "last_reviewed_session": 0
        },
        {
            "english": "Influence",
            "chinese": "影响",
            "pinyin": "yǐngxiǎng",
            "state": "New",
            "last_reviewed_session": 0
        },
        {
            "english": "inspect",
            "chinese": "检查",
            "pinyin": "jiǎnchá",
            "state": "New",
            "last_reviewed_session": 0
        },
        {
            "english": "just",
            "chinese": "刚才",
            "pinyin": "gāngcái",
            "state": "New",
            "last_reviewed_session": 0
        },
        {
            "english": "Kg.",
            "chinese": "公斤",
            "pinyin": "gōngjīn",
            "state": "New",
            "last_reviewed_session": 0
        },
        {
            "english": "lamp",
            "chinese": "灯",
            "pinyin": "dēng",
            "state": "New",
            "last_reviewed_session": 0
        },
        {
            "english": "Last",
            "chinese": "最后",
            "pinyin": "zuìhòu",
            "state": "New",
            "last_reviewed_session": 0
        },
        {
            "english": "Late",
            "chinese": "迟到",
            "pinyin": "chídào",
            "state": "New",
            "last_reviewed_session": 0
        },
        {
            "english": "lately",
            "chinese": "最近",
            "pinyin": "zuìjìn",
            "state": "New",
            "last_reviewed_session": 0
        },
        {
            "english": "later",
            "chinese": "后来",
            "pinyin": "hòulái",
            "state": "New",
            "last_reviewed_session": 0
        },
        {
            "english": "layer",
            "chinese": "层",
            "pinyin": "céng",
            "state": "New",
            "last_reviewed_session": 0
        },
        {
            "english": "leather shoes",
            "chinese": "皮鞋",
            "pinyin": "píxié",
            "state": "New",
            "last_reviewed_session": 0
        },
        {
            "english": "leave",
            "chinese": "离开",
            "pinyin": "líkāi",
            "state": "New",
            "last_reviewed_session": 0
        },
        {
            "english": "leg",
            "chinese": "腿",
            "pinyin": "tuǐ",
            "state": "New",
            "last_reviewed_session": 0
        },
        {
            "english": "level",
            "chinese": "水平",
            "pinyin": "shuǐpíng",
            "state": "New",
            "last_reviewed_session": 0
        },
        {
            "english": "Library",
            "chinese": "图书馆",
            "pinyin": "túshūguǎn",
            "state": "New",
            "last_reviewed_session": 0
        },
        {
            "english": "local",
            "chinese": "地方",
            "pinyin": "dìfang",
            "state": "New",
            "last_reviewed_session": 0
        },
        {
            "english": "long",
            "chinese": "久",
            "pinyin": "jiǔ",
            "state": "New",
            "last_reviewed_session": 0
        },
        {
            "english": "look after",
            "chinese": "照顾",
            "pinyin": "zhàogù",
            "state": "New",
            "last_reviewed_session": 0
        },
        {
            "english": "Lovely",
            "chinese": "可爱",
            "pinyin": "kě’ài",
            "state": "New",
            "last_reviewed_session": 0
        },
        {
            "english": "main",
            "chinese": "主要",
            "pinyin": "zhǔyào",
            "state": "New",
            "last_reviewed_session": 0
        },
        {
            "english": "manager",
            "chinese": "经理",
            "pinyin": "jīnglǐ",
            "state": "New",
            "last_reviewed_session": 0
        },
        {
            "english": "Map",
            "chinese": "地图",
            "pinyin": "dìtú",
            "state": "New",
            "last_reviewed_session": 0
        },
        {
            "english": "marry",
            "chinese": "结婚",
            "pinyin": "jiéhūn",
            "state": "New",
            "last_reviewed_session": 0
        },
        {
            "english": "Match",
            "chinese": "比赛",
            "pinyin": "bǐsài",
            "state": "New",
            "last_reviewed_session": 0
        },
        {
            "english": "Mathematics",
            "chinese": "数学",
            "pinyin": "shùxué",
            "state": "New",
            "last_reviewed_session": 0
        },
        {
            "english": "meet",
            "chinese": "见面",
            "pinyin": "jiànmiàn",
            "state": "New",
            "last_reviewed_session": 0
        },
        {
            "english": "Meeting",
            "chinese": "会议",
            "pinyin": "huìyì",
            "state": "New",
            "last_reviewed_session": 0
        },
        {
            "english": "menu",
            "chinese": "菜单",
            "pinyin": "càidān",
            "state": "New",
            "last_reviewed_session": 0
        },
        {
            "english": "metro",
            "chinese": "地铁",
            "pinyin": "dìtiě",
            "state": "New",
            "last_reviewed_session": 0
        },
        {
            "english": "Middle",
            "chinese": "中间",
            "pinyin": "zhōngjiān",
            "state": "New",
            "last_reviewed_session": 0
        },
        {
            "english": "minute",
            "chinese": "分",
            "pinyin": "fēn",
            "state": "New",
            "last_reviewed_session": 0
        },
        {
            "english": "moment",
            "chinese": "刻",
            "pinyin": "kè",
            "state": "New",
            "last_reviewed_session": 0
        },
        {
            "english": "Moon",
            "chinese": "月亮",
            "pinyin": "yuèliang",
            "state": "New",
            "last_reviewed_session": 0
        },
        {
            "english": "more",
            "chinese": "更",
            "pinyin": "gèng",
            "state": "New",
            "last_reviewed_session": 0
        },
        {
            "english": "Mountain climbing",
            "chinese": "爬山",
            "pinyin": "páshān",
            "state": "New",
            "last_reviewed_session": 0
        },
        {
            "english": "mouth",
            "chinese": "口",
            "pinyin": "kǒu",
            "state": "New",
            "last_reviewed_session": 0
        },
        {
            "english": "mouth",
            "chinese": "嘴",
            "pinyin": "zuǐ",
            "state": "New",
            "last_reviewed_session": 0
        },
        {
            "english": "Music",
            "chinese": "音乐",
            "pinyin": "yīnyuè",
            "state": "New",
            "last_reviewed_session": 0
        },
        {
            "english": "Must",
            "chinese": "必须",
            "pinyin": "bìxū",
            "state": "New",
            "last_reviewed_session": 0
        },
        {
            "english": "nearby",
            "chinese": "附近",
            "pinyin": "fùjìn",
            "state": "New",
            "last_reviewed_session": 0
        },
        {
            "english": "Need",
            "chinese": "需要",
            "pinyin": "xūyào",
            "state": "New",
            "last_reviewed_session": 0
        },
        {
            "english": "neighbor",
            "chinese": "邻居",
            "pinyin": "línjū",
            "state": "New",
            "last_reviewed_session": 0
        },
        {
            "english": "news",
            "chinese": "新闻",
            "pinyin": "xīnwén",
            "state": "New",
            "last_reviewed_session": 0
        },
        {
            "english": "north",
            "chinese": "北方",
            "pinyin": "běifāng",
            "state": "New",
            "last_reviewed_session": 0
        },
        {
            "english": "nose",
            "chinese": "鼻子",
            "pinyin": "bízi",
            "state": "New",
            "last_reviewed_session": 0
        },
        {
            "english": "not only…but also…",
            "chinese": "不但……而且……",
            "pinyin": "búdàn…érqiě…",
            "state": "New",
            "last_reviewed_session": 0
        },
        {
            "english": "notebook",
            "chinese": "笔记本",
            "pinyin": "bǐjìběn",
            "state": "New",
            "last_reviewed_session": 0
        },
        {
            "english": "Of course",
            "chinese": "当然",
            "pinyin": "dāngrán",
            "state": "New",
            "last_reviewed_session": 0
        },
        {
            "english": "Office",
            "chinese": "办公室",
            "pinyin": "bàngōngshì",
            "state": "New",
            "last_reviewed_session": 0
        },
        {
            "english": "Often",
            "chinese": "经常",
            "pinyin": "jīngcháng",
            "state": "New",
            "last_reviewed_session": 0
        },
        {
            "english": "old",
            "chinese": "老",
            "pinyin": "lǎo",
            "state": "New",
            "last_reviewed_session": 0
        },
        {
            "english": "old,used",
            "chinese": "旧",
            "pinyin": "jiù",
            "state": "New",
            "last_reviewed_session": 0
        },
        {
            "english": "One side",
            "chinese": "一边",
            "pinyin": "yìbiān",
            "state": "New",
            "last_reviewed_session": 0
        },
        {
            "english": "only",
            "chinese": "只（副词）",
            "pinyin": "zhǐ",
            "state": "New",
            "last_reviewed_session": 0
        },
        {
            "english": "only if",
            "chinese": "只有……才……",
            "pinyin": "zhǐyǒu…cái…",
            "state": "New",
            "last_reviewed_session": 0
        },
        {
            "english": "Opportunity",
            "chinese": "机会",
            "pinyin": "jīhuì",
            "state": "New",
            "last_reviewed_session": 0
        },
        {
            "english": "Other",
            "chinese": "其他",
            "pinyin": "qítā",
            "state": "New",
            "last_reviewed_session": 0
        },
        {
            "english": "Others",
            "chinese": "别人",
            "pinyin": "biéren",
            "state": "New",
            "last_reviewed_session": 0
        },
        {
            "english": "Overseas Study",
            "chinese": "留学",
            "pinyin": "liúxué",
            "state": "New",
            "last_reviewed_session": 0
        },
        {
            "english": "Own, self",
            "chinese": "自己",
            "pinyin": "zìjǐ",
            "state": "New",
            "last_reviewed_session": 0
        },
        {
            "english": "package",
            "chinese": "包",
            "pinyin": "bāo",
            "state": "New",
            "last_reviewed_session": 0
        },
        {
            "english": "painting",
            "chinese": "画",
            "pinyin": "huà",
            "state": "New",
            "last_reviewed_session": 0
        },
        {
            "english": "Panda",
            "chinese": "熊猫",
            "pinyin": "xióngmāo",
            "state": "New",
            "last_reviewed_session": 0
        },
        {
            "english": "paragraph",
            "chinese": "段",
            "pinyin": "duàn",
            "state": "New",
            "last_reviewed_session": 0
        },
        {
            "english": "Park",
            "chinese": "公园",
            "pinyin": "gōngyuán",
            "state": "New",
            "last_reviewed_session": 0
        },
        {
            "english": "participate in",
            "chinese": "参加",
            "pinyin": "cānjiā",
            "state": "New",
            "last_reviewed_session": 0
        },
        {
            "english": "pass",
            "chinese": "过（动词）",
            "pinyin": "guò",
            "state": "New",
            "last_reviewed_session": 0
        },
        {
            "english": "passport",
            "chinese": "护照",
            "pinyin": "hùzhào",
            "state": "New",
            "last_reviewed_session": 0
        },
        {
            "english": "Past times",
            "chinese": "过去",
            "pinyin": "guòqù",
            "state": "New",
            "last_reviewed_session": 0
        },
        {
            "english": "perhaps",
            "chinese": "或者",
            "pinyin": "huòzhě",
            "state": "New",
            "last_reviewed_session": 0
        },
        {
            "english": "Photo",
            "chinese": "照片",
            "pinyin": "zhàopiàn",
            "state": "New",
            "last_reviewed_session": 0
        },
        {
            "english": "Physical exercise",
            "chinese": "锻炼",
            "pinyin": "duànliàn",
            "state": "New",
            "last_reviewed_session": 0
        },
        {
            "english": "pick,get",
            "chinese": "接",
            "pinyin": "jiē",
            "state": "New",
            "last_reviewed_session": 0
        },
        {
            "english": "Plan",
            "chinese": "打算",
            "pinyin": "dǎsuàn",
            "state": "New",
            "last_reviewed_session": 0
        },
        {
            "english": "plate",
            "chinese": "盘子",
            "pinyin": "pánzi",
            "state": "New",
            "last_reviewed_session": 0
        },
        {
            "english": "Practice",
            "chinese": "练习",
            "pinyin": "liànxí",
            "state": "New",
            "last_reviewed_session": 0
        },
        {
            "english": "Principal",
            "chinese": "校长",
            "pinyin": "xiàozhǎng",
            "state": "New",
            "last_reviewed_session": 0
        },
        {
            "english": "program",
            "chinese": "节目",
            "pinyin": "jiémù",
            "state": "New",
            "last_reviewed_session": 0
        },
        {
            "english": "Refrigerator",
            "chinese": "冰箱",
            "pinyin": "bīngxiāng",
            "state": "New",
            "last_reviewed_session": 0
        },
        {
            "english": "relationship",
            "chinese": "关系",
            "pinyin": "guānxì",
            "state": "New",
            "last_reviewed_session": 0
        },
        {
            "english": "remember",
            "chinese": "记得",
            "pinyin": "jìde",
            "state": "New",
            "last_reviewed_session": 0
        },
        {
            "english": "Requirement",
            "chinese": "要求",
            "pinyin": "yāoqiú",
            "state": "New",
            "last_reviewed_session": 0
        },
        {
            "english": "Restroom",
            "chinese": "洗手间",
            "pinyin": "xǐshǒujiān",
            "state": "New",
            "last_reviewed_session": 0
        },
        {
            "english": "Return",
            "chinese": "还（动词）",
            "pinyin": "huán",
            "state": "New",
            "last_reviewed_session": 0
        },
        {
            "english": "Review",
            "chinese": "复习",
            "pinyin": "fùxí",
            "state": "New",
            "last_reviewed_session": 0
        },
        {
            "english": "rice",
            "chinese": "米",
            "pinyin": "mǐ",
            "state": "New",
            "last_reviewed_session": 0
        },
        {
            "english": "ride",
            "chinese": "骑",
            "pinyin": "qí",
            "state": "New",
            "last_reviewed_session": 0
        },
        {
            "english": "Right off",
            "chinese": "马上",
            "pinyin": "mǎshàng",
            "state": "New",
            "last_reviewed_session": 0
        },
        {
            "english": "sad",
            "chinese": "难过",
            "pinyin": "nánguò",
            "state": "New",
            "last_reviewed_session": 0
        },
        {
            "english": "Satisfied",
            "chinese": "满意",
            "pinyin": "mǎnyì",
            "state": "New",
            "last_reviewed_session": 0
        },
        {
            "english": "Season",
            "chinese": "季节",
            "pinyin": "jìjié",
            "state": "New",
            "last_reviewed_session": 0
        },
        {
            "english": "send out",
            "chinese": "发",
            "pinyin": "fā",
            "state": "New",
            "last_reviewed_session": 0
        },
        {
            "english": "sentence",
            "chinese": "句子",
            "pinyin": "jùzi",
            "state": "New",
            "last_reviewed_session": 0
        },
        {
            "english": "ship",
            "chinese": "船",
            "pinyin": "chuán",
            "state": "New",
            "last_reviewed_session": 0
        },
        {
            "english": "shirt",
            "chinese": "衬衫",
            "pinyin": "chènshān",
            "state": "New",
            "last_reviewed_session": 0
        },
        {
            "english": "short",
            "chinese": "矮",
            "pinyin": "ǎi",
            "state": "New",
            "last_reviewed_session": 0
        },
        {
            "english": "short",
            "chinese": "短",
            "pinyin": "duǎn",
            "state": "New",
            "last_reviewed_session": 0
        },
        {
            "english": "Should",
            "chinese": "应该",
            "pinyin": "yīnggāi",
            "state": "New",
            "last_reviewed_session": 0
        },
        {
            "english": "shut",
            "chinese": "关",
            "pinyin": "guān",
            "state": "New",
            "last_reviewed_session": 0
        },
        {
            "english": "simple",
            "chinese": "简单",
            "pinyin": "jiǎndān",
            "state": "New",
            "last_reviewed_session": 0
        },
        {
            "english": "skirt",
            "chinese": "裙子",
            "pinyin": "qúnzi",
            "state": "New",
            "last_reviewed_session": 0
        },
        {
            "english": "Solve",
            "chinese": "解决",
            "pinyin": "jiějué",
            "state": "New",
            "last_reviewed_session": 0
        },
        {
            "english": "speak",
            "chinese": "讲",
            "pinyin": "jiǎng",
            "state": "New",
            "last_reviewed_session": 0
        },
        {
            "english": "species",
            "chinese": "种",
            "pinyin": "zhǒng",
            "state": "New",
            "last_reviewed_session": 0
        },
        {
            "english": "Sports",
            "chinese": "体育",
            "pinyin": "tǐyù",
            "state": "New",
            "last_reviewed_session": 0
        },
        {
            "english": "spring",
            "chinese": "春",
            "pinyin": "chūn",
            "state": "New",
            "last_reviewed_session": 0
        },
        {
            "english": "station",
            "chinese": "站",
            "pinyin": "zhàn",
            "state": "New",
            "last_reviewed_session": 0
        },
        {
            "english": "still",
            "chinese": "还是",
            "pinyin": "háishì",
            "state": "New",
            "last_reviewed_session": 0
        },
        {
            "english": "Story",
            "chinese": "故事",
            "pinyin": "gùshi",
            "state": "New",
            "last_reviewed_session": 0
        },
        {
            "english": "strange",
            "chinese": "奇怪",
            "pinyin": "qíguài",
            "state": "New",
            "last_reviewed_session": 0
        },
        {
            "english": "Street",
            "chinese": "街道",
            "pinyin": "jiēdào",
            "state": "New",
            "last_reviewed_session": 0
        },
        {
            "english": "strip",
            "chinese": "条",
            "pinyin": "tiáo",
            "state": "New",
            "last_reviewed_session": 0
        },
        {
            "english": "Strive",
            "chinese": "努力",
            "pinyin": "nǔlì",
            "state": "New",
            "last_reviewed_session": 0
        },
        {
            "english": "such",
            "chinese": "多么",
            "pinyin": "duōme",
            "state": "New",
            "last_reviewed_session": 0
        },
        {
            "english": "suddenly",
            "chinese": "突然",
            "pinyin": "tūrán",
            "state": "New",
            "last_reviewed_session": 0
        },
        {
            "english": "summer",
            "chinese": "夏",
            "pinyin": "xià",
            "state": "New",
            "last_reviewed_session": 0
        },
        {
            "english": "sun",
            "chinese": "太阳",
            "pinyin": "tàiyáng",
            "state": "New",
            "last_reviewed_session": 0
        },
        {
            "english": "Supermarket",
            "chinese": "超市",
            "pinyin": "chāoshì",
            "state": "New",
            "last_reviewed_session": 0
        },
        {
            "english": "Surf the Internet",
            "chinese": "上网",
            "pinyin": "shàngwǎng",
            "state": "New",
            "last_reviewed_session": 0
        },
        {
            "english": "sweet",
            "chinese": "甜",
            "pinyin": "tián",
            "state": "New",
            "last_reviewed_session": 0
        },
        {
            "english": "take",
            "chinese": "拿",
            "pinyin": "ná",
            "state": "New",
            "last_reviewed_session": 0
        },
        {
            "english": "Take a shower",
            "chinese": "洗澡",
            "pinyin": "xǐzǎo",
            "state": "New",
            "last_reviewed_session": 0
        },
        {
            "english": "take off",
            "chinese": "起飞",
            "pinyin": "qǐfēi",
            "state": "New",
            "last_reviewed_session": 0
        },
        {
            "english": "teach",
            "chinese": "教",
            "pinyin": "jiāo",
            "state": "New",
            "last_reviewed_session": 0
        },
        {
            "english": "ten thousand",
            "chinese": "万",
            "pinyin": "wàn",
            "state": "New",
            "last_reviewed_session": 0
        },
        {
            "english": "the more",
            "chinese": "越",
            "pinyin": "yuè",
            "state": "New",
            "last_reviewed_session": 0
        },
        {
            "english": "Then",
            "chinese": "然后",
            "pinyin": "ránhòu",
            "state": "New",
            "last_reviewed_session": 0
        },
        {
            "english": "thin",
            "chinese": "瘦",
            "pinyin": "shòu",
            "state": "New",
            "last_reviewed_session": 0
        },
        {
            "english": "think",
            "chinese": "认为",
            "pinyin": "rènwéi",
            "state": "New",
            "last_reviewed_session": 0
        },
        {
            "english": "thirsty",
            "chinese": "渴",
            "pinyin": "kě",
            "state": "New",
            "last_reviewed_session": 0
        },
        {
            "english": "tree",
            "chinese": "树",
            "pinyin": "shù",
            "state": "New",
            "last_reviewed_session": 0
        },
        {
            "english": "trousers",
            "chinese": "裤子",
            "pinyin": "kùzi",
            "state": "New",
            "last_reviewed_session": 0
        },
        {
            "english": "Trunk",
            "chinese": "行李箱",
            "pinyin": "xínglixiāng",
            "state": "New",
            "last_reviewed_session": 0
        },
        {
            "english": "try",
            "chinese": "试",
            "pinyin": "shì",
            "state": "New",
            "last_reviewed_session": 0
        },
        {
            "english": "umbrella",
            "chinese": "伞",
            "pinyin": "sǎn",
            "state": "New",
            "last_reviewed_session": 0
        },
        {
            "english": "uncle",
            "chinese": "叔叔",
            "pinyin": "shūshu",
            "state": "New",
            "last_reviewed_session": 0
        },
        {
            "english": "understand",
            "chinese": "了解",
            "pinyin": "liǎojiě",
            "state": "New",
            "last_reviewed_session": 0
        },
        {
            "english": "use",
            "chinese": "用",
            "pinyin": "yòng",
            "state": "New",
            "last_reviewed_session": 0
        },
        {
            "english": "voice",
            "chinese": "声音",
            "pinyin": "shēngyīn",
            "state": "New",
            "last_reviewed_session": 0
        },
        {
            "english": "watch out",
            "chinese": "小心",
            "pinyin": "xiǎoxīn",
            "state": "New",
            "last_reviewed_session": 0
        },
        {
            "english": "Way",
            "chinese": "办法",
            "pinyin": "bànfǎ",
            "state": "New",
            "last_reviewed_session": 0
        },
        {
            "english": "Weekend",
            "chinese": "周末",
            "pinyin": "zhōumò",
            "state": "New",
            "last_reviewed_session": 0
        },
        {
            "english": "Welcome",
            "chinese": "欢迎",
            "pinyin": "huānyíng",
            "state": "New",
            "last_reviewed_session": 0
        },
        {
            "english": "west",
            "chinese": "西",
            "pinyin": "xī",
            "state": "New",
            "last_reviewed_session": 0
        },
        {
            "english": "Windy",
            "chinese": "刮风",
            "pinyin": "guāfēng",
            "state": "New",
            "last_reviewed_session": 0
        },
        {
            "english": "with",
            "chinese": "跟",
            "pinyin": "gēn",
            "state": "New",
            "last_reviewed_session": 0
        },
        {
            "english": "world",
            "chinese": "世界",
            "pinyin": "shìjiè",
            "state": "New",
            "last_reviewed_session": 0
        },
        {
            "english": "Worry",
            "chinese": "担心",
            "pinyin": "dānxīn",
            "state": "New",
            "last_reviewed_session": 0
        },
        {
            "english": "Worry",
            "chinese": "着急",
            "pinyin": "zháojí",
            "state": "New",
            "last_reviewed_session": 0
        },
        {
            "english": "Yellow River",
            "chinese": "黄河",
            "pinyin": "huánghé",
            "state": "New",
            "last_reviewed_session": 0
        },
        {
            "english": "Young",
            "chinese": "年轻",
            "pinyin": "niánqīng",
            "state": "New",
            "last_reviewed_session": 0
        },
        {
            "english": "Zhang (surname)",
            "chinese": "张",
            "pinyin": "zhāng",
            "state": "New",
            "last_reviewed_session": 0
        },
        {
            "english": "land/ground",
            "chinese": "地",
            "pinyin": "de",
            "state": "New",
            "last_reviewed_session": 0
        },
        {
            "english": "science and technology",
            "chinese": "科技 ",
            "pinyin": "kējì",
            "state": "New",
            "last_reviewed_session": 0
        },
        {
            "english": "Self-reliance (Chinese isolationist)",
            "chinese": "自立自强",
            "pinyin": "Zìlì zìqiáng",
            "state": "New",
            "last_reviewed_session": 0
        },
        {
            "english": "Main idea/purpose",
            "chinese": "主旨",
            "pinyin": "Zhǔzhǐ",
            "state": "New",
            "last_reviewed_session": 0
        },
        {
            "english": "Stay true to your original aspiration (of the party)",
            "chinese": "不忘初心",
            "pinyin": "Bù wàng chūxīn",
            "state": "New",
            "last_reviewed_session": 0
        },
        {
            "english": "National Security",
            "chinese": "国家安",
            "pinyin": "Guójiā ān",
            "state": "New",
            "last_reviewed_session": 0
        },
        {
            "english": "win-win",
            "chinese": "双赢",
            "pinyin": "Shuāngyíng",
            "state": "New",
            "last_reviewed_session": 0
        },
        {
            "english": "the people (in a communist sense)",
            "chinese": "人民",
            "pinyin": "Rénmín",
            "state": "New",
            "last_reviewed_session": 0
        },
        {
            "english": "Xi Jinping",
            "chinese": "习近平",
            "pinyin": "Xíjìnpíng",
            "state": "New",
            "last_reviewed_session": 0
        },
        {
            "english": "peace ",
            "chinese": "和平",
            "pinyin": "Hépíng",
            "state": "New",
            "last_reviewed_session": 0
        },
        {
            "english": "valuables",
            "chinese": "贵重物品",
            "pinyin": "Guìzhòng wùpǐn",
            "state": "New",
            "last_reviewed_session": 0
        },
        {
            "english": "you",
            "chinese": "您",
            "pinyin": "nín",
            "state": "New",
            "last_reviewed_session": 0
        },
        {
            "english": "it",
            "chinese": "它",
            "pinyin": "tā",
            "state": "New",
            "last_reviewed_session": 0
        },
        {
            "english": "everyone",
            "chinese": "大家",
            "pinyin": "dàjiā",
            "state": "New",
            "last_reviewed_session": 0
        },
        {
            "english": "every, each",
            "chinese": "每",
            "pinyin": "měi",
            "state": "New",
            "last_reviewed_session": 0
        },
        {
            "english": "why",
            "chinese": "为什么",
            "pinyin": "wèishénme",
            "state": "New",
            "last_reviewed_session": 0
        },
        {
            "english": "zero",
            "chinese": "零",
            "pinyin": "líng",
            "state": "New",
            "last_reviewed_session": 0
        },
        {
            "english": "two",
            "chinese": "两",
            "pinyin": "liǎng",
            "state": "New",
            "last_reviewed_session": 0
        },
        {
            "english": "hundred",
            "chinese": "百",
            "pinyin": "bǎi",
            "state": "New",
            "last_reviewed_session": 0
        },
        {
            "english": "thousand",
            "chinese": "千",
            "pinyin": "qiān",
            "state": "New",
            "last_reviewed_session": 0
        },
        {
            "english": "first",
            "chinese": "第一",
            "pinyin": "dìyī",
            "state": "New",
            "last_reviewed_session": 0
        },
        {
            "english": "times",
            "chinese": "次",
            "pinyin": "cì",
            "state": "New",
            "last_reviewed_session": 0
        },
        {
            "english": "piece",
            "chinese": "件",
            "pinyin": "jiàn",
            "state": "New",
            "last_reviewed_session": 0
        },
        {
            "english": "do not",
            "chinese": "别",
            "pinyin": "bié",
            "state": "New",
            "last_reviewed_session": 0
        },
        {
            "english": "very",
            "chinese": "非常",
            "pinyin": "fēicháng",
            "state": "New",
            "last_reviewed_session": 0
        },
        {
            "english": "also",
            "chinese": "也",
            "pinyin": "yě",
            "state": "New",
            "last_reviewed_session": 0
        },
        {
            "english": "still",
            "chinese": "还",
            "pinyin": "hái",
            "state": "New",
            "last_reviewed_session": 0
        },
        {
            "english": "the most",
            "chinese": "最",
            "pinyin": "zuì",
            "state": "New",
            "last_reviewed_session": 0
        },
        {
            "english": "really",
            "chinese": "真",
            "pinyin": "zhēn",
            "state": "New",
            "last_reviewed_session": 0
        },
        {
            "english": "be being",
            "chinese": "正在",
            "pinyin": "zhèngzài",
            "state": "New",
            "last_reviewed_session": 0
        },
        {
            "english": "already",
            "chinese": "已经",
            "pinyin": "yǐjīng",
            "state": "New",
            "last_reviewed_session": 0
        },
        {
            "english": "together",
            "chinese": "一起",
            "pinyin": "yìqǐ",
            "state": "New",
            "last_reviewed_session": 0
        },
        {
            "english": "again",
            "chinese": "再",
            "pinyin": "zài",
            "state": "New",
            "last_reviewed_session": 0
        },
        {
            "english": "at once",
            "chinese": "就",
            "pinyin": "jiǜ",
            "state": "New",
            "last_reviewed_session": 0
        },
        {
            "english": "because…so…",
            "chinese": "因为……所以……",
            "pinyin": "yīnwèi…suǒyǐ…",
            "state": "New",
            "last_reviewed_session": 0
        },
        {
            "english": "although… but…",
            "chinese": "虽然……但是……",
            "pinyin": "suīrán…dànshì…",
            "state": "New",
            "last_reviewed_session": 0
        },
        {
            "english": "from",
            "chinese": "从",
            "pinyin": "cóng",
            "state": "New",
            "last_reviewed_session": 0
        },
        {
            "english": "comparing to",
            "chinese": "比",
            "pinyin": "bǐ",
            "state": "New",
            "last_reviewed_session": 0
        },
        {
            "english": "toward, to",
            "chinese": "往",
            "pinyin": "wǎng",
            "state": "New",
            "last_reviewed_session": 0
        },
        {
            "english": "indicate the distance between two objects",
            "chinese": "离",
            "pinyin": "lí",
            "state": "New",
            "last_reviewed_session": 0
        },
        {
            "english": "?",
            "chinese": "着",
            "pinyin": "zhe",
            "state": "New",
            "last_reviewed_session": 0
        },
        {
            "english": "?",
            "chinese": "吧",
            "pinyin": "ba",
            "state": "New",
            "last_reviewed_session": 0
        },
        {
            "english": "airport",
            "chinese": "机场",
            "pinyin": "jīchǎng",
            "state": "New",
            "last_reviewed_session": 0
        },
        {
            "english": "classroom",
            "chinese": "教室",
            "pinyin": "jiàoshì",
            "state": "New",
            "last_reviewed_session": 0
        },
        {
            "english": "room",
            "chinese": "房间",
            "pinyin": "fángjiān",
            "state": "New",
            "last_reviewed_session": 0
        },
        {
            "english": "road",
            "chinese": "路",
            "pinyin": "lù",
            "state": "New",
            "last_reviewed_session": 0
        },
        {
            "english": "left",
            "chinese": "左边",
            "pinyin": "zuǒbiān",
            "state": "New",
            "last_reviewed_session": 0
        },
        {
            "english": "right",
            "chinese": "右边",
            "pinyin": "yòubiān",
            "state": "New",
            "last_reviewed_session": 0
        },
        {
            "english": "outside",
            "chinese": "外",
            "pinyin": "wài",
            "state": "New",
            "last_reviewed_session": 0
        },
        {
            "english": "side",
            "chinese": "旁边",
            "pinyin": "pángbiān",
            "state": "New",
            "last_reviewed_session": 0
        },
        {
            "english": "in a short while",
            "chinese": "一下",
            "pinyin": "yīxià",
            "state": "New",
            "last_reviewed_session": 0
        },
        {
            "english": "morning",
            "chinese": "早上",
            "pinyin": "zǎoshàng",
            "state": "New",
            "last_reviewed_session": 0
        },
        {
            "english": "night",
            "chinese": "晚上",
            "pinyin": "wǎnshàng",
            "state": "New",
            "last_reviewed_session": 0
        },
        {
            "english": "hour",
            "chinese": "小时",
            "pinyin": "xiǎoshí",
            "state": "New",
            "last_reviewed_session": 0
        },
        {
            "english": "time",
            "chinese": "时间",
            "pinyin": "shíjiān",
            "state": "New",
            "last_reviewed_session": 0
        },
        {
            "english": "last year",
            "chinese": "去年",
            "pinyin": "qùnián",
            "state": "New",
            "last_reviewed_session": 0
        },
        {
            "english": "date",
            "chinese": "日",
            "pinyin": "rì",
            "state": "New",
            "last_reviewed_session": 0
        },
        {
            "english": "birthday",
            "chinese": "生日",
            "pinyin": "shēngrì",
            "state": "New",
            "last_reviewed_session": 0
        },
        {
            "english": "older brother",
            "chinese": "哥哥",
            "pinyin": "gēge",
            "state": "New",
            "last_reviewed_session": 0
        },
        {
            "english": "older sister",
            "chinese": "姐姐",
            "pinyin": "jiějie",
            "state": "New",
            "last_reviewed_session": 0
        },
        {
            "english": "younger brother",
            "chinese": "弟弟",
            "pinyin": "dìdi",
            "state": "New",
            "last_reviewed_session": 0
        },
        {
            "english": "younger sister",
            "chinese": "妹妹",
            "pinyin": "mèimei",
            "state": "New",
            "last_reviewed_session": 0
        },
        {
            "english": "husband",
            "chinese": "丈夫",
            "pinyin": "zhàngfu",
            "state": "New",
            "last_reviewed_session": 0
        },
        {
            "english": "wife",
            "chinese": "妻子",
            "pinyin": "qīzi",
            "state": "New",
            "last_reviewed_session": 0
        },
        {
            "english": "child",
            "chinese": "孩子",
            "pinyin": "háizi",
            "state": "New",
            "last_reviewed_session": 0
        },
        {
            "english": "man",
            "chinese": "男人",
            "pinyin": "nánrén",
            "state": "New",
            "last_reviewed_session": 0
        },
        {
            "english": "woman",
            "chinese": "女人",
            "pinyin": "nǚrén",
            "state": "New",
            "last_reviewed_session": 0
        },
        {
            "english": "waiter",
            "chinese": "服务员",
            "pinyin": "fúwùyuán",
            "state": "New",
            "last_reviewed_session": 0
        },
        {
            "english": "fish",
            "chinese": "鱼",
            "pinyin": "yú",
            "state": "New",
            "last_reviewed_session": 0
        },
        {
            "english": "mutton",
            "chinese": "羊肉",
            "pinyin": "yángròu",
            "state": "New",
            "last_reviewed_session": 0
        },
        {
            "english": "milk",
            "chinese": "牛奶",
            "pinyin": "niúnǎi",
            "state": "New",
            "last_reviewed_session": 0
        },
        {
            "english": "egg",
            "chinese": "鸡蛋",
            "pinyin": "jīdàn",
            "state": "New",
            "last_reviewed_session": 0
        },
        {
            "english": "watermelon",
            "chinese": "西瓜",
            "pinyin": "xīguā",
            "state": "New",
            "last_reviewed_session": 0
        },
        {
            "english": "coffee",
            "chinese": "咖啡",
            "pinyin": "kāfēi",
            "state": "New",
            "last_reviewed_session": 0
        },
        {
            "english": "snow",
            "chinese": "雪",
            "pinyin": "xuě",
            "state": "New",
            "last_reviewed_session": 0
        },
        {
            "english": "medicine",
            "chinese": "药",
            "pinyin": "yào",
            "state": "New",
            "last_reviewed_session": 0
        },
        {
            "english": "cellphone",
            "chinese": "手机",
            "pinyin": "shǒujī",
            "state": "New",
            "last_reviewed_session": 0
        },
        {
            "english": "watch",
            "chinese": "手表",
            "pinyin": "shǒubiǎo",
            "state": "New",
            "last_reviewed_session": 0
        },
        {
            "english": "eye",
            "chinese": "眼睛",
            "pinyin": "yǎnjīng",
            "state": "New",
            "last_reviewed_session": 0
        },
        {
            "english": "body",
            "chinese": "身体",
            "pinyin": "shēntǐ",
            "state": "New",
            "last_reviewed_session": 0
        },
        {
            "english": "bus",
            "chinese": "公共汽车",
            "pinyin": "gōnggòngqìchē",
            "state": "New",
            "last_reviewed_session": 0
        },
        {
            "english": "newspaper",
            "chinese": "报纸",
            "pinyin": "bàozhǐ",
            "state": "New",
            "last_reviewed_session": 0
        },
        {
            "english": "door",
            "chinese": "门",
            "pinyin": "mén",
            "state": "New",
            "last_reviewed_session": 0
        },
        {
            "english": "topic, item",
            "chinese": "题",
            "pinyin": "tí",
            "state": "New",
            "last_reviewed_session": 0
        },
        {
            "english": "surname",
            "chinese": "姓",
            "pinyin": "xìng",
            "state": "New",
            "last_reviewed_session": 0
        },
        {
            "english": "question",
            "chinese": "问题",
            "pinyin": "wèntí",
            "state": "New",
            "last_reviewed_session": 0
        },
        {
            "english": "matter",
            "chinese": "事情",
            "pinyin": "shìqing",
            "state": "New",
            "last_reviewed_session": 0
        },
        {
            "english": "exam",
            "chinese": "考试",
            "pinyin": "kǎoshì",
            "state": "New",
            "last_reviewed_session": 0
        },
        {
            "english": "ticket",
            "chinese": "票",
            "pinyin": "piào",
            "state": "New",
            "last_reviewed_session": 0
        },
        {
            "english": "meaning",
            "chinese": "意思",
            "pinyin": "yìsi",
            "state": "New",
            "last_reviewed_session": 0
        },
        {
            "english": "color",
            "chinese": "颜色",
            "pinyin": "yánsè",
            "state": "New",
            "last_reviewed_session": 0
        },
        {
            "english": "pencil",
            "chinese": "铅笔",
            "pinyin": "qiánbǐ",
            "state": "New",
            "last_reviewed_session": 0
        },
        {
            "english": "noodle",
            "chinese": "面条",
            "pinyin": "miàntiáo",
            "state": "New",
            "last_reviewed_session": 0
        },
        {
            "english": "train station",
            "chinese": "火车站",
            "pinyin": "huǒchēzhàn",
            "state": "New",
            "last_reviewed_session": 0
        },
        {
            "english": "company",
            "chinese": "公司",
            "pinyin": "gōngsī",
            "state": "New",
            "last_reviewed_session": 0
        },
        {
            "english": "hotel",
            "chinese": "宾馆",
            "pinyin": "bīngguǎn",
            "state": "New",
            "last_reviewed_session": 0
        },
        {
            "english": "talk",
            "chinese": "说话",
            "pinyin": "shuōhuà",
            "state": "New",
            "last_reviewed_session": 0
        },
        {
            "english": "sell",
            "chinese": "卖",
            "pinyin": "mài",
            "state": "New",
            "last_reviewed_session": 0
        },
        {
            "english": "ask",
            "chinese": "问",
            "pinyin": "wèn",
            "state": "New",
            "last_reviewed_session": 0
        },
        {
            "english": "walk",
            "chinese": "走",
            "pinyin": "zǒu",
            "state": "New",
            "last_reviewed_session": 0
        },
        {
            "english": "enter",
            "chinese": "进",
            "pinyin": "jìn",
            "state": "New",
            "last_reviewed_session": 0
        },
        {
            "english": "come",
            "chinese": "出",
            "pinyin": "chū",
            "state": "New",
            "last_reviewed_session": 0
        },
        {
            "english": "run",
            "chinese": "跑步",
            "pinyin": "pǎobù",
            "state": "New",
            "last_reviewed_session": 0
        },
        {
            "english": "arrive",
            "chinese": "到",
            "pinyin": "dào",
            "state": "New",
            "last_reviewed_session": 0
        },
        {
            "english": "wear",
            "chinese": "穿",
            "pinyin": "chuān",
            "state": "New",
            "last_reviewed_session": 0
        },
        {
            "english": "wash",
            "chinese": "洗",
            "pinyin": "xǐ",
            "state": "New",
            "last_reviewed_session": 0
        },
        {
            "english": "give",
            "chinese": "给",
            "pinyin": "gěi",
            "state": "New",
            "last_reviewed_session": 0
        },
        {
            "english": "find",
            "chinese": "找",
            "pinyin": "zhǎo",
            "state": "New",
            "last_reviewed_session": 0
        },
        {
            "english": "understand",
            "chinese": "懂",
            "pinyin": "dǒng",
            "state": "New",
            "last_reviewed_session": 0
        },
        {
            "english": "smile",
            "chinese": "笑",
            "pinyin": "xiào",
            "state": "New",
            "last_reviewed_session": 0
        },
        {
            "english": "tell",
            "chinese": "告诉",
            "pinyin": "gàosù",
            "state": "New",
            "last_reviewed_session": 0
        },
        {
            "english": "prepare",
            "chinese": "准备",
            "pinyin": "zhǔnbèi",
            "state": "New",
            "last_reviewed_session": 0
        },
        {
            "english": "begin",
            "chinese": "开始",
            "pinyin": "kāishǐ",
            "state": "New",
            "last_reviewed_session": 0
        },
        {
            "english": "introduce",
            "chinese": "介绍",
            "pinyin": "jièshào",
            "state": "New",
            "last_reviewed_session": 0
        },
        {
            "english": "help",
            "chinese": "帮助",
            "pinyin": "bāngzhù",
            "state": "New",
            "last_reviewed_session": 0
        },
        {
            "english": "play",
            "chinese": "玩",
            "pinyin": "wán",
            "state": "New",
            "last_reviewed_session": 0
        },
        {
            "english": "present",
            "chinese": "送",
            "pinyin": "sòng",
            "state": "New",
            "last_reviewed_session": 0
        },
        {
            "english": "wait",
            "chinese": "等",
            "pinyin": "děng",
            "state": "New",
            "last_reviewed_session": 0
        },
        {
            "english": "let",
            "chinese": "让",
            "pinyin": "ràng",
            "state": "New",
            "last_reviewed_session": 0
        },
        {
            "english": "get up",
            "chinese": "起床",
            "pinyin": "qǐchuáng",
            "state": "New",
            "last_reviewed_session": 0
        },
        {
            "english": "sing",
            "chinese": "唱歌",
            "pinyin": "chànggē",
            "state": "New",
            "last_reviewed_session": 0
        },
        {
            "english": "dance",
            "chinese": "跳舞",
            "pinyin": "tiàowǔ",
            "state": "New",
            "last_reviewed_session": 0
        },
        {
            "english": "travel",
            "chinese": "旅游",
            "pinyin": "lǚyóu",
            "state": "New",
            "last_reviewed_session": 0
        },
        {
            "english": "be on duty",
            "chinese": "上班",
            "pinyin": "shàngbān",
            "state": "New",
            "last_reviewed_session": 0
        },
        {
            "english": "get ill, get sick",
            "chinese": "生病",
            "pinyin": "shēngbìng",
            "state": "New",
            "last_reviewed_session": 0
        },
        {
            "english": "rest",
            "chinese": "休息",
            "pinyin": "xiūxi",
            "state": "New",
            "last_reviewed_session": 0
        },
        {
            "english": "exercise",
            "chinese": "运动",
            "pinyin": "yùndòng",
            "state": "New",
            "last_reviewed_session": 0
        },
        {
            "english": "swim",
            "chinese": "游泳",
            "pinyin": "yóuyǒng",
            "state": "New",
            "last_reviewed_session": 0
        },
        {
            "english": "play footbal",
            "chinese": "踢足球",
            "pinyin": "tīzúqiú",
            "state": "New",
            "last_reviewed_session": 0
        },
        {
            "english": "play basketball",
            "chinese": "打篮球",
            "pinyin": "dǎlánqiú",
            "state": "New",
            "last_reviewed_session": 0
        },
        {
            "english": "think",
            "chinese": "觉得",
            "pinyin": "juédé",
            "state": "New",
            "last_reviewed_session": 0
        },
        {
            "english": "know",
            "chinese": "知道",
            "pinyin": "zhīdao",
            "state": "New",
            "last_reviewed_session": 0
        },
        {
            "english": "hope",
            "chinese": "希望",
            "pinyin": "xīwàng",
            "state": "New",
            "last_reviewed_session": 0
        },
        {
            "english": "can",
            "chinese": "可以",
            "pinyin": "kěyǐ",
            "state": "New",
            "last_reviewed_session": 0
        },
        {
            "english": "may",
            "chinese": "可能",
            "pinyin": "kěnéng",
            "state": "New",
            "last_reviewed_session": 0
        },
        {
            "english": "tall",
            "chinese": "高",
            "pinyin": "gāo",
            "state": "New",
            "last_reviewed_session": 0
        },
        {
            "english": "red",
            "chinese": "红",
            "pinyin": "hóng",
            "state": "New",
            "last_reviewed_session": 0
        },
        {
            "english": "white",
            "chinese": "白",
            "pinyin": "bái",
            "state": "New",
            "last_reviewed_session": 0
        },
        {
            "english": "black",
            "chinese": "黑",
            "pinyin": "hēi",
            "state": "New",
            "last_reviewed_session": 0
        },
        {
            "english": "busy",
            "chinese": "忙",
            "pinyin": "máng",
            "state": "New",
            "last_reviewed_session": 0
        },
        {
            "english": "fast",
            "chinese": "快",
            "pinyin": "kuài",
            "state": "New",
            "last_reviewed_session": 0
        },
        {
            "english": "slow",
            "chinese": "慢",
            "pinyin": "màn",
            "state": "New",
            "last_reviewed_session": 0
        },
        {
            "english": "far",
            "chinese": "远",
            "pinyin": "yuǎn",
            "state": "New",
            "last_reviewed_session": 0
        },
        {
            "english": "delicious",
            "chinese": "好吃",
            "pinyin": "hǎochī",
            "state": "New",
            "last_reviewed_session": 0
        },
        {
            "english": "tired",
            "chinese": "累",
            "pinyin": "lèi",
            "state": "New",
            "last_reviewed_session": 0
        },
        {
            "english": "long",
            "chinese": "长",
            "pinyin": "cháng",
            "state": "New",
            "last_reviewed_session": 0
        },
        {
            "english": "new",
            "chinese": "新",
            "pinyin": "xīn",
            "state": "New",
            "last_reviewed_session": 0
        },
        {
            "english": "expensive",
            "chinese": "贵",
            "pinyin": "guì",
            "state": "New",
            "last_reviewed_session": 0
        },
        {
            "english": "cheap",
            "chinese": "便宜",
            "pinyin": "piányi",
            "state": "New",
            "last_reviewed_session": 0
        },
        {
            "english": "fine",
            "chinese": "晴",
            "pinyin": "qíng",
            "state": "New",
            "last_reviewed_session": 0
        },
        {
            "english": "cloudy",
            "chinese": "阴",
            "pinyin": "yīn",
            "state": "New",
            "last_reviewed_session": 0
        },
        {
            "english": "wrong",
            "chinese": "错",
            "pinyin": "cuò",
            "state": "New",
            "last_reviewed_session": 0
        },
        {
            "english": "happy",
            "chinese": "快乐",
            "pinyin": "kuàilè",
            "state": "New",
            "last_reviewed_session": 0
        },
        {
            "english": "to",
            "chinese": "对",
            "pinyin": "duì",
            "state": "New",
            "last_reviewed_session": 0
        },
        {
            "english": "Love",
            "chinese": "爱情",
            "pinyin": "àiqíng",
            "state": "New",
            "last_reviewed_session": 0
        },
        {
            "english": "arrange",
            "chinese": "安排",
            "pinyin": "ānpái",
            "state": "New",
            "last_reviewed_session": 0
        },
        {
            "english": "security",
            "chinese": "安全",
            "pinyin": "ānquán",
            "state": "New",
            "last_reviewed_session": 0
        },
        {
            "english": "on time",
            "chinese": "按时",
            "pinyin": "ànshí",
            "state": "New",
            "last_reviewed_session": 0
        },
        {
            "english": "according to",
            "chinese": "按照",
            "pinyin": "ànzhào",
            "state": "New",
            "last_reviewed_session": 0
        },
        {
            "english": "percent",
            "chinese": "百分之 ",
            "pinyin": "bǎifēnzhī",
            "state": "New",
            "last_reviewed_session": 0
        },
        {
            "english": "stick；excellent",
            "chinese": "棒 ",
            "pinyin": "bàng",
            "state": "New",
            "last_reviewed_session": 0
        },
        {
            "english": "Steamed stuffed bun",
            "chinese": "包子",
            "pinyin": "bāozi",
            "state": "New",
            "last_reviewed_session": 0
        },
        {
            "english": "protect",
            "chinese": "保护",
            "pinyin": "bǎohù",
            "state": "New",
            "last_reviewed_session": 0
        },
        {
            "english": "ensure",
            "chinese": "保证",
            "pinyin": "bǎozhèng",
            "state": "New",
            "last_reviewed_session": 0
        },
        {
            "english": "Hold",
            "chinese": "抱",
            "pinyin": "bào",
            "state": "New",
            "last_reviewed_session": 0
        },
        {
            "english": "feel sorry",
            "chinese": "抱歉",
            "pinyin": "bàoqiàn",
            "state": "New",
            "last_reviewed_session": 0
        },
        {
            "english": "sign up",
            "chinese": "报名",
            "pinyin": "bàomíng",
            "state": "New",
            "last_reviewed_session": 0
        },
        {
            "english": "originally",
            "chinese": "本来",
            "pinyin": "běnlái",
            "state": "New",
            "last_reviewed_session": 0
        },
        {
            "english": "stupid",
            "chinese": "笨",
            "pinyin": "bèn",
            "state": "New",
            "last_reviewed_session": 0
        },
        {
            "english": "such as",
            "chinese": "比如",
            "pinyin": "bǐrú",
            "state": "New",
            "last_reviewed_session": 0
        },
        {
            "english": "graduation",
            "chinese": "毕业",
            "pinyin": "bìyè",
            "state": "New",
            "last_reviewed_session": 0
        },
        {
            "english": "Times",
            "chinese": "遍",
            "pinyin": "biàn",
            "state": "New",
            "last_reviewed_session": 0
        },
        {
            "english": "standard",
            "chinese": "标准",
            "pinyin": "biāozhǔn",
            "state": "New",
            "last_reviewed_session": 0
        },
        {
            "english": "form",
            "chinese": "表格",
            "pinyin": "biǎogé",
            "state": "New",
            "last_reviewed_session": 0
        },
        {
            "english": "Express",
            "chinese": "表示",
            "pinyin": "biǎoshì",
            "state": "New",
            "last_reviewed_session": 0
        },
        {
            "english": "perform",
            "chinese": "表演",
            "pinyin": "biǎoyǎn",
            "state": "New",
            "last_reviewed_session": 0
        },
        {
            "english": "Praise",
            "chinese": "表扬",
            "pinyin": "biǎoyáng",
            "state": "New",
            "last_reviewed_session": 0
        },
        {
            "english": "Biscuits",
            "chinese": "饼干",
            "pinyin": "bǐnggān",
            "state": "New",
            "last_reviewed_session": 0
        },
        {
            "english": "also",
            "chinese": "并且",
            "pinyin": "bìngqiě",
            "state": "New",
            "last_reviewed_session": 0
        },
        {
            "english": "doctor",
            "chinese": "博士",
            "pinyin": "bóshì",
            "state": "New",
            "last_reviewed_session": 0
        },
        {
            "english": "However",
            "chinese": "不过",
            "pinyin": "búguò",
            "state": "New",
            "last_reviewed_session": 0
        },
        {
            "english": "have to",
            "chinese": "不得不",
            "pinyin": "bùdébù",
            "state": "New",
            "last_reviewed_session": 0
        },
        {
            "english": "no matter",
            "chinese": "不管",
            "pinyin": "bùguǎn",
            "state": "New",
            "last_reviewed_session": 0
        },
        {
            "english": "not only",
            "chinese": "不仅",
            "pinyin": "bùjǐn",
            "state": "New",
            "last_reviewed_session": 0
        },
        {
            "english": "Part",
            "chinese": "部分",
            "pinyin": "bùfen",
            "state": "New",
            "last_reviewed_session": 0
        },
        {
            "english": "wipe",
            "chinese": "擦",
            "pinyin": "cā",
            "state": "New",
            "last_reviewed_session": 0
        },
        {
            "english": "guess",
            "chinese": "猜",
            "pinyin": "cāi",
            "state": "New",
            "last_reviewed_session": 0
        },
        {
            "english": "Material Science",
            "chinese": "材料",
            "pinyin": "cáiliào",
            "state": "New",
            "last_reviewed_session": 0
        },
        {
            "english": "visit",
            "chinese": "参观",
            "pinyin": "cānguān",
            "state": "New",
            "last_reviewed_session": 0
        },
        {
            "english": "Restaurant",
            "chinese": "餐厅",
            "pinyin": "cāntīng",
            "state": "New",
            "last_reviewed_session": 0
        },
        {
            "english": "Almost",
            "chinese": "差不多",
            "pinyin": "chàbuduō",
            "state": "New",
            "last_reviewed_session": 0
        },
        {
            "english": "The Great Wall",
            "chinese": "长城",
            "pinyin": "chángchéng",
            "state": "New",
            "last_reviewed_session": 0
        },
        {
            "english": "The Yangtze River",
            "chinese": "长江",
            "pinyin": "chángjiāng",
            "state": "New",
            "last_reviewed_session": 0
        },
        {
            "english": "site",
            "chinese": "场",
            "pinyin": "chǎng",
            "state": "New",
            "last_reviewed_session": 0
        },
        {
            "english": "Exceed",
            "chinese": "超过",
            "pinyin": "chāoguò",
            "state": "New",
            "last_reviewed_session": 0
        },
        {
            "english": "Toilet",
            "chinese": "厕所",
            "pinyin": "cèsuǒ",
            "state": "New",
            "last_reviewed_session": 0
        },
        {
            "english": "Success",
            "chinese": "成功",
            "pinyin": "chénggōng",
            "state": "New",
            "last_reviewed_session": 0
        },
        {
            "english": "Become",
            "chinese": "成为",
            "pinyin": "chéngwéi",
            "state": "New",
            "last_reviewed_session": 0
        },
        {
            "english": "honest",
            "chinese": "诚实",
            "pinyin": "chéngshí",
            "state": "New",
            "last_reviewed_session": 0
        },
        {
            "english": "ride",
            "chinese": "乘坐",
            "pinyin": "chéngzuò",
            "state": "New",
            "last_reviewed_session": 0
        },
        {
            "english": "Be amazed",
            "chinese": "吃惊",
            "pinyin": "chījīng",
            "state": "New",
            "last_reviewed_session": 0
        },
        {
            "english": "again",
            "chinese": "重新",
            "pinyin": "chóngxīn",
            "state": "New",
            "last_reviewed_session": 0
        },
        {
            "english": "smoking",
            "chinese": "抽烟",
            "pinyin": "chōuyān",
            "state": "New",
            "last_reviewed_session": 0
        },
        {
            "english": "A business travel",
            "chinese": "出差",
            "pinyin": "chūchāi",
            "state": "New",
            "last_reviewed_session": 0
        },
        {
            "english": "Set out",
            "chinese": "出发",
            "pinyin": "chūfā",
            "state": "New",
            "last_reviewed_session": 0
        },
        {
            "english": "Birth",
            "chinese": "出生",
            "pinyin": "chūshēng",
            "state": "New",
            "last_reviewed_session": 0
        },
        {
            "english": "Appear",
            "chinese": "出现",
            "pinyin": "chūxiàn",
            "state": "New",
            "last_reviewed_session": 0
        },
        {
            "english": "Kitchen",
            "chinese": "厨房",
            "pinyin": "chúfáng",
            "state": "New",
            "last_reviewed_session": 0
        },
        {
            "english": "Fax",
            "chinese": "传真",
            "pinyin": "chuánzhēn",
            "state": "New",
            "last_reviewed_session": 0
        },
        {
            "english": "Window",
            "chinese": "窗户",
            "pinyin": "chuānghu",
            "state": "New",
            "last_reviewed_session": 0
        },
        {
            "english": "terms, words",
            "chinese": "词语",
            "pinyin": "cíyǔ",
            "state": "New",
            "last_reviewed_session": 0
        },
        {
            "english": "Always",
            "chinese": "从来",
            "pinyin": "cónglái",
            "state": "New",
            "last_reviewed_session": 0
        },
        {
            "english": "careless",
            "chinese": "粗心",
            "pinyin": "cūxīn",
            "state": "New",
            "last_reviewed_session": 0
        },
        {
            "english": "Deposit",
            "chinese": "存",
            "pinyin": "cún",
            "state": "New",
            "last_reviewed_session": 0
        },
        {
            "english": "error",
            "chinese": "错误",
            "pinyin": "cuòwù",
            "state": "New",
            "last_reviewed_session": 0
        },
        {
            "english": "Answer",
            "chinese": "答案",
            "pinyin": "dá’àn",
            "state": "New",
            "last_reviewed_session": 0
        },
        {
            "english": "Say hello",
            "chinese": "打招呼",
            "pinyin": "dǎzhāohu",
            "state": "New",
            "last_reviewed_session": 0
        },
        {
            "english": "dress up",
            "chinese": "打扮",
            "pinyin": "dǎban",
            "state": "New",
            "last_reviewed_session": 0
        },
        {
            "english": "Disturb",
            "chinese": "打扰",
            "pinyin": "dǎrǎo",
            "state": "New",
            "last_reviewed_session": 0
        },
        {
            "english": "Print",
            "chinese": "打印",
            "pinyin": "dǎyìn",
            "state": "New",
            "last_reviewed_session": 0
        },
        {
            "english": "Discount",
            "chinese": "打折",
            "pinyin": "dǎzhé",
            "state": "New",
            "last_reviewed_session": 0
        },
        {
            "english": "To make an injection",
            "chinese": "打针",
            "pinyin": "dǎzhēn",
            "state": "New",
            "last_reviewed_session": 0
        },
        {
            "english": "Probably",
            "chinese": "大概",
            "pinyin": "dàgài",
            "state": "New",
            "last_reviewed_session": 0
        },
        {
            "english": "Embassy",
            "chinese": "大使馆",
            "pinyin": "dàshǐguǎn",
            "state": "New",
            "last_reviewed_session": 0
        },
        {
            "english": "about",
            "chinese": "大约",
            "pinyin": "dàyuē",
            "state": "New",
            "last_reviewed_session": 0
        },
        {
            "english": "Doctor",
            "chinese": "大夫",
            "pinyin": "dàifu",
            "state": "New",
            "last_reviewed_session": 0
        },
        {
            "english": "When",
            "chinese": "当",
            "pinyin": "dāng",
            "state": "New",
            "last_reviewed_session": 0
        },
        {
            "english": "at that time",
            "chinese": "当时",
            "pinyin": "dāngshí",
            "state": "New",
            "last_reviewed_session": 0
        },
        {
            "english": "knife",
            "chinese": "刀",
            "pinyin": "dāo",
            "state": "New",
            "last_reviewed_session": 0
        },
        {
            "english": "Guide",
            "chinese": "导游",
            "pinyin": "dǎoyóu",
            "state": "New",
            "last_reviewed_session": 0
        },
        {
            "english": "everywhere",
            "chinese": "到处",
            "pinyin": "dàochù",
            "state": "New",
            "last_reviewed_session": 0
        },
        {
            "english": "To the end",
            "chinese": "到底",
            "pinyin": "dàodǐ",
            "state": "New",
            "last_reviewed_session": 0
        },
        {
            "english": "apologize",
            "chinese": "道歉",
            "pinyin": "dàoqiàn",
            "state": "New",
            "last_reviewed_session": 0
        },
        {
            "english": "Proud",
            "chinese": "得意",
            "pinyin": "déyì",
            "state": "New",
            "last_reviewed_session": 0
        },
        {
            "english": "location",
            "chinese": "地点",
            "pinyin": "dìdiǎn",
            "state": "New",
            "last_reviewed_session": 0
        },
        {
            "english": "have to",
            "chinese": "得（助动词）",
            "pinyin": "děi",
            "state": "New",
            "last_reviewed_session": 0
        },
        {
            "english": "Boarding pass",
            "chinese": "登机牌",
            "pinyin": "dēngjīpái",
            "state": "New",
            "last_reviewed_session": 0
        },
        {
            "english": "low",
            "chinese": "低",
            "pinyin": "dī",
            "state": "New",
            "last_reviewed_session": 0
        },
        {
            "english": "bottom",
            "chinese": "底",
            "pinyin": "dǐ",
            "state": "New",
            "last_reviewed_session": 0
        },
        {
            "english": "earth",
            "chinese": "地球",
            "pinyin": "dìqiú",
            "state": "New",
            "last_reviewed_session": 0
        },
        {
            "english": "address",
            "chinese": "地址",
            "pinyin": "dìzhǐ",
            "state": "New",
            "last_reviewed_session": 0
        },
        {
            "english": "fall",
            "chinese": "掉",
            "pinyin": "diào",
            "state": "New",
            "last_reviewed_session": 0
        },
        {
            "english": "investigation",
            "chinese": "调查",
            "pinyin": "diàochá",
            "state": "New",
            "last_reviewed_session": 0
        },
        {
            "english": "lose",
            "chinese": "丢",
            "pinyin": "diū",
            "state": "New",
            "last_reviewed_session": 0
        },
        {
            "english": "action",
            "chinese": "动作",
            "pinyin": "dòngzuò",
            "state": "New",
            "last_reviewed_session": 0
        },
        {
            "english": "Traffic jam",
            "chinese": "堵车",
            "pinyin": "dǔchē",
            "state": "New",
            "last_reviewed_session": 0
        },
        {
            "english": "belly",
            "chinese": "肚子",
            "pinyin": "dùzi",
            "state": "New",
            "last_reviewed_session": 0
        },
        {
            "english": "Short message",
            "chinese": "短信",
            "pinyin": "duǎnxìn",
            "state": "New",
            "last_reviewed_session": 0
        },
        {
            "english": "about",
            "chinese": "对于",
            "pinyin": "duìyú",
            "state": "New",
            "last_reviewed_session": 0
        },
        {
            "english": "dialogue",
            "chinese": "对话",
            "pinyin": "duìhuà",
            "state": "New",
            "last_reviewed_session": 0
        },
        {
            "english": "Opposite side",
            "chinese": "对面",
            "pinyin": "duìmiàn",
            "state": "New",
            "last_reviewed_session": 0
        },
        {
            "english": "and",
            "chinese": "而",
            "pinyin": "ér",
            "state": "New",
            "last_reviewed_session": 0
        },
        {
            "english": "children",
            "chinese": "儿童",
            "pinyin": "értóng",
            "state": "New",
            "last_reviewed_session": 0
        },
        {
            "english": "Happen",
            "chinese": "发生",
            "pinyin": "fāshēng",
            "state": "New",
            "last_reviewed_session": 0
        },
        {
            "english": "Development",
            "chinese": "发展",
            "pinyin": "fāzhǎn",
            "state": "New",
            "last_reviewed_session": 0
        },
        {
            "english": "Law",
            "chinese": "法律",
            "pinyin": "fǎlǜ",
            "state": "New",
            "last_reviewed_session": 0
        },
        {
            "english": "translate",
            "chinese": "翻译",
            "pinyin": "fānyì",
            "state": "New",
            "last_reviewed_session": 0
        },
        {
            "english": "annoyance",
            "chinese": "烦恼",
            "pinyin": "fánnǎo",
            "state": "New",
            "last_reviewed_session": 0
        },
        {
            "english": "Opposition",
            "chinese": "反对",
            "pinyin": "fǎnduì",
            "state": "New",
            "last_reviewed_session": 0
        },
        {
            "english": "Method",
            "chinese": "方法",
            "pinyin": "fāngfǎ",
            "state": "New",
            "last_reviewed_session": 0
        },
        {
            "english": "Aspect",
            "chinese": "方面",
            "pinyin": "fāngmiàn",
            "state": "New",
            "last_reviewed_session": 0
        },
        {
            "english": "direction",
            "chinese": "方向",
            "pinyin": "fāngxiàng",
            "state": "New",
            "last_reviewed_session": 0
        },
        {
            "english": "landlord",
            "chinese": "房东",
            "pinyin": "fángdōng",
            "state": "New",
            "last_reviewed_session": 0
        },
        {
            "english": "give up",
            "chinese": "放弃",
            "pinyin": "fàngqì",
            "state": "New",
            "last_reviewed_session": 0
        },
        {
            "english": "summer vacation",
            "chinese": "放暑假",
            "pinyin": "fàngshǔjià",
            "state": "New",
            "last_reviewed_session": 0
        },
        {
            "english": "Relax",
            "chinese": "放松",
            "pinyin": "fàngsōng",
            "state": "New",
            "last_reviewed_session": 0
        },
        {
            "english": "share (measure word)",
            "chinese": "份",
            "pinyin": "fèn",
            "state": "New",
            "last_reviewed_session": 0
        },
        {
            "english": "rich",
            "chinese": "丰富",
            "pinyin": "fēngfù",
            "state": "New",
            "last_reviewed_session": 0
        },
        {
            "english": "otherwise",
            "chinese": "否则",
            "pinyin": "fǒuzé",
            "state": "New",
            "last_reviewed_session": 0
        },
        {
            "english": "accord with",
            "chinese": "符合",
            "pinyin": "fúhé",
            "state": "New",
            "last_reviewed_session": 0
        },
        {
            "english": "rich",
            "chinese": "富",
            "pinyin": "fù",
            "state": "New",
            "last_reviewed_session": 0
        },
        {
            "english": "pay",
            "chinese": "付款",
            "pinyin": "fùkuǎn",
            "state": "New",
            "last_reviewed_session": 0
        },
        {
            "english": "father",
            "chinese": "父亲",
            "pinyin": "fùqīn",
            "state": "New",
            "last_reviewed_session": 0
        },
        {
            "english": "To copy",
            "chinese": "复印",
            "pinyin": "fùyìn",
            "state": "New",
            "last_reviewed_session": 0
        },
        {
            "english": "complex",
            "chinese": "复杂",
            "pinyin": "fùzá",
            "state": "New",
            "last_reviewed_session": 0
        },
        {
            "english": "Be responsible for",
            "chinese": "负责",
            "pinyin": "fùzé",
            "state": "New",
            "last_reviewed_session": 0
        },
        {
            "english": "change",
            "chinese": "改变",
            "pinyin": "gǎibiàn",
            "state": "New",
            "last_reviewed_session": 0
        },
        {
            "english": "Cheers!",
            "chinese": "干杯",
            "pinyin": "gānbēi",
            "state": "New",
            "last_reviewed_session": 0
        },
        {
            "english": "catch up with",
            "chinese": "赶",
            "pinyin": "gǎn",
            "state": "New",
            "last_reviewed_session": 0
        },
        {
            "english": "Be moved",
            "chinese": "感动",
            "pinyin": "gǎndòng",
            "state": "New",
            "last_reviewed_session": 0
        },
        {
            "english": "feel",
            "chinese": "感觉",
            "pinyin": "gǎnjué",
            "state": "New",
            "last_reviewed_session": 0
        },
        {
            "english": "feeling",
            "chinese": "感情",
            "pinyin": "gǎnqíng",
            "state": "New",
            "last_reviewed_session": 0
        },
        {
            "english": "Thank",
            "chinese": "感谢",
            "pinyin": "gǎnxiè",
            "state": "New",
            "last_reviewed_session": 0
        },
        {
            "english": "dry",
            "chinese": "干",
            "pinyin": "gān",
            "state": "New",
            "last_reviewed_session": 0
        },
        {
            "english": "just",
            "chinese": "刚",
            "pinyin": "gāng",
            "state": "New",
            "last_reviewed_session": 0
        },
        {
            "english": "Expressway",
            "chinese": "高速公路",
            "pinyin": "gāosùgōnglù",
            "state": "New",
            "last_reviewed_session": 0
        },
        {
            "english": "Arm",
            "chinese": "胳膊",
            "pinyin": "gēbo",
            "state": "New",
            "last_reviewed_session": 0
        },
        {
            "english": "various",
            "chinese": "各",
            "pinyin": "gè",
            "state": "New",
            "last_reviewed_session": 0
        },
        {
            "english": "kilometre",
            "chinese": "公里",
            "pinyin": "gōnglǐ",
            "state": "New",
            "last_reviewed_session": 0
        },
        {
            "english": "wages",
            "chinese": "工资",
            "pinyin": "gōngzī",
            "state": "New",
            "last_reviewed_session": 0
        },
        {
            "english": "Kungfu ",
            "chinese": "功夫",
            "pinyin": "gōngfu",
            "state": "New",
            "last_reviewed_session": 0
        },
        {
            "english": "common",
            "chinese": "共同",
            "pinyin": "gòngtóng",
            "state": "New",
            "last_reviewed_session": 0
        },
        {
            "english": "enough",
            "chinese": "够",
            "pinyin": "gòu",
            "state": "New",
            "last_reviewed_session": 0
        },
        {
            "english": "Shopping",
            "chinese": "购物",
            "pinyin": "gòuwù",
            "state": "New",
            "last_reviewed_session": 0
        },
        {
            "english": "estimate",
            "chinese": "估计",
            "pinyin": "gūjì",
            "state": "New",
            "last_reviewed_session": 0
        },
        {
            "english": "encourage",
            "chinese": "鼓励",
            "pinyin": "gǔlì",
            "state": "New",
            "last_reviewed_session": 0
        },
        {
            "english": "customer",
            "chinese": "顾客",
            "pinyin": "gùkè",
            "state": "New",
            "last_reviewed_session": 0
        },
        {
            "english": "deliberately",
            "chinese": "故意",
            "pinyin": "gùyì",
            "state": "New",
            "last_reviewed_session": 0
        },
        {
            "english": "hang",
            "chinese": "挂",
            "pinyin": "guà",
            "state": "New",
            "last_reviewed_session": 0
        },
        {
            "english": "key",
            "chinese": "关键",
            "pinyin": "guānjiàn",
            "state": "New",
            "last_reviewed_session": 0
        },
        {
            "english": "Audience",
            "chinese": "观众",
            "pinyin": "guānzhòng",
            "state": "New",
            "last_reviewed_session": 0
        },
        {
            "english": "Administration",
            "chinese": "管理",
            "pinyin": "guǎnlǐ",
            "state": "New",
            "last_reviewed_session": 0
        },
        {
            "english": "light",
            "chinese": "光",
            "pinyin": "guāng",
            "state": "New",
            "last_reviewed_session": 0
        },
        {
            "english": "Radio broadcast",
            "chinese": "广播",
            "pinyin": "guǎngbō",
            "state": "New",
            "last_reviewed_session": 0
        },
        {
            "english": "Advertisement",
            "chinese": "广告",
            "pinyin": "guǎnggào",
            "state": "New",
            "last_reviewed_session": 0
        },
        {
            "english": "Stroll",
            "chinese": "逛",
            "pinyin": "guàng",
            "state": "New",
            "last_reviewed_session": 0
        },
        {
            "english": "Regulations",
            "chinese": "规定",
            "pinyin": "guīdìng",
            "state": "New",
            "last_reviewed_session": 0
        },
        {
            "english": "international",
            "chinese": "国际",
            "pinyin": "guójì",
            "state": "New",
            "last_reviewed_session": 0
        },
        {
            "english": "nationality",
            "chinese": "国籍",
            "pinyin": "guójí",
            "state": "New",
            "last_reviewed_session": 0
        },
        {
            "english": "fruit juice",
            "chinese": "果汁",
            "pinyin": "guǒzhī",
            "state": "New",
            "last_reviewed_session": 0
        },
        {
            "english": "process",
            "chinese": "过程",
            "pinyin": "guòchéng",
            "state": "New",
            "last_reviewed_session": 0
        },
        {
            "english": "ocean",
            "chinese": "海洋",
            "pinyin": "hǎiyáng",
            "state": "New",
            "last_reviewed_session": 0
        },
        {
            "english": "Shy",
            "chinese": "害羞",
            "pinyin": "hàixiū",
            "state": "New",
            "last_reviewed_session": 0
        },
        {
            "english": "The winter vacation",
            "chinese": "寒假",
            "pinyin": "hánjià",
            "state": "New",
            "last_reviewed_session": 0
        },
        {
            "english": "sweat",
            "chinese": "汗",
            "pinyin": "hàn",
            "state": "New",
            "last_reviewed_session": 0
        },
        {
            "english": "flight",
            "chinese": "航班",
            "pinyin": "hángbān",
            "state": "New",
            "last_reviewed_session": 0
        },
        {
            "english": "benefit",
            "chinese": "好处",
            "pinyin": "hǎochù",
            "state": "New",
            "last_reviewed_session": 0
        },
        {
            "english": "Be like, seem",
            "chinese": "好像",
            "pinyin": "hǎoxiàng",
            "state": "New",
            "last_reviewed_session": 0
        },
        {
            "english": "number",
            "chinese": "号码",
            "pinyin": "hàomǎ",
            "state": "New",
            "last_reviewed_session": 0
        },
        {
            "english": "qualified",
            "chinese": "合格",
            "pinyin": "hégé",
            "state": "New",
            "last_reviewed_session": 0
        },
        {
            "english": "appropriate",
            "chinese": "合适",
            "pinyin": "héshì",
            "state": "New",
            "last_reviewed_session": 0
        },
        {
            "english": "Box",
            "chinese": "盒子",
            "pinyin": "hézi",
            "state": "New",
            "last_reviewed_session": 0
        },
        {
            "english": "thick",
            "chinese": "厚",
            "pinyin": "hòu",
            "state": "New",
            "last_reviewed_session": 0
        },
        {
            "english": "regret",
            "chinese": "后悔",
            "pinyin": "hòuhuǐ",
            "state": "New",
            "last_reviewed_session": 0
        },
        {
            "english": "Nurse",
            "chinese": "护士",
            "pinyin": "hùshi",
            "state": "New",
            "last_reviewed_session": 0
        },
        {
            "english": "Internet",
            "chinese": "互联网 ",
            "pinyin": "hùliánwǎng",
            "state": "New",
            "last_reviewed_session": 0
        },
        {
            "english": "each other",
            "chinese": "互相",
            "pinyin": "hùxiāng",
            "state": "New",
            "last_reviewed_session": 0
        },
        {
            "english": "doubt",
            "chinese": "怀疑",
            "pinyin": "huáiyí",
            "state": "New",
            "last_reviewed_session": 0
        },
        {
            "english": "Memory",
            "chinese": "回忆",
            "pinyin": "huíyì",
            "state": "New",
            "last_reviewed_session": 0
        },
        {
            "english": "activity",
            "chinese": "活动",
            "pinyin": "huódòng",
            "state": "New",
            "last_reviewed_session": 0
        },
        {
            "english": "lively",
            "chinese": "活泼",
            "pinyin": "huópō",
            "state": "New",
            "last_reviewed_session": 0
        },
        {
            "english": "fire",
            "chinese": "火",
            "pinyin": "huǒ",
            "state": "New",
            "last_reviewed_session": 0
        },
        {
            "english": "Get",
            "chinese": "获得",
            "pinyin": "huòdé",
            "state": "New",
            "last_reviewed_session": 0
        },
        {
            "english": "Basics",
            "chinese": "基础",
            "pinyin": "jīchǔ",
            "state": "New",
            "last_reviewed_session": 0
        },
        {
            "english": "Excited",
            "chinese": "激动",
            "pinyin": "jīdòng",
            "state": "New",
            "last_reviewed_session": 0
        },
        {
            "english": "positive",
            "chinese": "积极",
            "pinyin": "jījí",
            "state": "New",
            "last_reviewed_session": 0
        },
        {
            "english": "accumulation",
            "chinese": "积累",
            "pinyin": "jīlěi",
            "state": "New",
            "last_reviewed_session": 0
        },
        {
            "english": "timely",
            "chinese": "及时",
            "pinyin": "jíshí",
            "state": "New",
            "last_reviewed_session": 0
        },
        {
            "english": "even if",
            "chinese": "即使",
            "pinyin": "jíshǐ",
            "state": "New",
            "last_reviewed_session": 0
        },
        {
            "english": "send",
            "chinese": "寄",
            "pinyin": "jì",
            "state": "New",
            "last_reviewed_session": 0
        },
        {
            "english": "Reporter",
            "chinese": "记者",
            "pinyin": "jìzhě",
            "state": "New",
            "last_reviewed_session": 0
        },
        {
            "english": "plan",
            "chinese": "计划",
            "pinyin": "jìhuà",
            "state": "New",
            "last_reviewed_session": 0
        },
        {
            "english": "although",
            "chinese": "既然",
            "pinyin": "jìrán",
            "state": "New",
            "last_reviewed_session": 0
        },
        {
            "english": "technology",
            "chinese": "技术",
            "pinyin": "jìshù",
            "state": "New",
            "last_reviewed_session": 0
        },
        {
            "english": "Continue",
            "chinese": "继续",
            "pinyin": "jìxù",
            "state": "New",
            "last_reviewed_session": 0
        },
        {
            "english": "furniture",
            "chinese": "家具",
            "pinyin": "jiājù",
            "state": "New",
            "last_reviewed_session": 0
        },
        {
            "english": "overtime work",
            "chinese": "加班",
            "pinyin": "jiābān",
            "state": "New",
            "last_reviewed_session": 0
        },
        {
            "english": "Gas station",
            "chinese": "加油站",
            "pinyin": "jiāyóuzhàn",
            "state": "New",
            "last_reviewed_session": 0
        },
        {
            "english": "false ",
            "chinese": "假",
            "pinyin": "jiǎ",
            "state": "New",
            "last_reviewed_session": 0
        },
        {
            "english": "Price",
            "chinese": "价格",
            "pinyin": "jiàgé",
            "state": "New",
            "last_reviewed_session": 0
        },
        {
            "english": "Insist",
            "chinese": "坚持",
            "pinyin": "jiānchí",
            "state": "New",
            "last_reviewed_session": 0
        },
        {
            "english": "Reduce weight",
            "chinese": "减肥",
            "pinyin": "jiǎnféi",
            "state": "New",
            "last_reviewed_session": 0
        },
        {
            "english": "reduce",
            "chinese": "减少",
            "pinyin": "jiǎnshǎo",
            "state": "New",
            "last_reviewed_session": 0
        },
        {
            "english": "proposal",
            "chinese": "建议",
            "pinyin": "jiànyì",
            "state": "New",
            "last_reviewed_session": 0
        },
        {
            "english": "future",
            "chinese": "将来",
            "pinyin": "jiānglái",
            "state": "New",
            "last_reviewed_session": 0
        },
        {
            "english": "bonus",
            "chinese": "奖金",
            "pinyin": "jiǎngjīn",
            "state": "New",
            "last_reviewed_session": 0
        },
        {
            "english": "reduce",
            "chinese": "降低",
            "pinyin": "jiàngdī",
            "state": "New",
            "last_reviewed_session": 0
        },
        {
            "english": "land",
            "chinese": "降落",
            "pinyin": "jiàngluò",
            "state": "New",
            "last_reviewed_session": 0
        },
        {
            "english": "Communication",
            "chinese": "交流",
            "pinyin": "jiāoliú",
            "state": "New",
            "last_reviewed_session": 0
        },
        {
            "english": "traffic",
            "chinese": "交通",
            "pinyin": "jiāotōng",
            "state": "New",
            "last_reviewed_session": 0
        },
        {
            "english": "Suburb",
            "chinese": "郊区",
            "pinyin": "jiāoqū",
            "state": "New",
            "last_reviewed_session": 0
        },
        {
            "english": "Proud",
            "chinese": "骄傲",
            "pinyin": "jiāo’ào",
            "state": "New",
            "last_reviewed_session": 0
        },
        {
            "english": "Dumplings",
            "chinese": "饺子",
            "pinyin": "jiǎozi",
            "state": "New",
            "last_reviewed_session": 0
        },
        {
            "english": "professor",
            "chinese": "教授",
            "pinyin": "jiàoshòu",
            "state": "New",
            "last_reviewed_session": 0
        },
        {
            "english": "education",
            "chinese": "教育",
            "pinyin": "jiàoyù",
            "state": "New",
            "last_reviewed_session": 0
        },
        {
            "english": "accept",
            "chinese": "接受",
            "pinyin": "jiēshòu",
            "state": "New",
            "last_reviewed_session": 0
        },
        {
            "english": "Next",
            "chinese": "接着",
            "pinyin": "jiēzhe",
            "state": "New",
            "last_reviewed_session": 0
        },
        {
            "english": "Result",
            "chinese": "结果",
            "pinyin": "jiéguǒ",
            "state": "New",
            "last_reviewed_session": 0
        },
        {
            "english": "section, festival",
            "chinese": "节",
            "pinyin": "jié",
            "state": "New",
            "last_reviewed_session": 0
        },
        {
            "english": "save",
            "chinese": "节约",
            "pinyin": "jiéyuē",
            "state": "New",
            "last_reviewed_session": 0
        },
        {
            "english": "explain",
            "chinese": "解释",
            "pinyin": "jiěshì",
            "state": "New",
            "last_reviewed_session": 0
        },
        {
            "english": "although",
            "chinese": "尽管",
            "pinyin": "jǐnguǎn",
            "state": "New",
            "last_reviewed_session": 0
        },
        {
            "english": "Nervous",
            "chinese": "紧张",
            "pinyin": "jǐnzhāng",
            "state": "New",
            "last_reviewed_session": 0
        },
        {
            "english": "in process of",
            "chinese": "进行",
            "pinyin": "jìnxíng",
            "state": "New",
            "last_reviewed_session": 0
        },
        {
            "english": "prohibit",
            "chinese": "禁止",
            "pinyin": "jìnzhǐ",
            "state": "New",
            "last_reviewed_session": 0
        },
        {
            "english": "Marvellous",
            "chinese": "精彩",
            "pinyin": "jīngcǎi",
            "state": "New",
            "last_reviewed_session": 0
        },
        {
            "english": "Economics",
            "chinese": "经济",
            "pinyin": "jīngjì",
            "state": "New",
            "last_reviewed_session": 0
        },
        {
            "english": "experience",
            "chinese": "经历",
            "pinyin": "jīnglì",
            "state": "New",
            "last_reviewed_session": 0
        },
        {
            "english": "experience",
            "chinese": "经验",
            "pinyin": "jīngyàn",
            "state": "New",
            "last_reviewed_session": 0
        },
        {
            "english": "Beijing opera",
            "chinese": "京剧",
            "pinyin": "jīngjù",
            "state": "New",
            "last_reviewed_session": 0
        },
        {
            "english": "Policeman",
            "chinese": "警察",
            "pinyin": "jǐngchá",
            "state": "New",
            "last_reviewed_session": 0
        },
        {
            "english": "scenery",
            "chinese": "景色",
            "pinyin": "jǐngsè",
            "state": "New",
            "last_reviewed_session": 0
        },
        {
            "english": "Unexpectedly",
            "chinese": "竟然",
            "pinyin": "jìngrán",
            "state": "New",
            "last_reviewed_session": 0
        },
        {
            "english": "compete",
            "chinese": "竞争",
            "pinyin": "jìngzhēng",
            "state": "New",
            "last_reviewed_session": 0
        },
        {
            "english": "Mirror",
            "chinese": "镜子",
            "pinyin": "jìngzi",
            "state": "New",
            "last_reviewed_session": 0
        },
        {
            "english": "exactly",
            "chinese": "究竟",
            "pinyin": "jiūjìng",
            "state": "New",
            "last_reviewed_session": 0
        },
        {
            "english": "lift",
            "chinese": "举",
            "pinyin": "jǔ",
            "state": "New",
            "last_reviewed_session": 0
        },
        {
            "english": "hold",
            "chinese": "举办",
            "pinyin": "jǔbàn",
            "state": "New",
            "last_reviewed_session": 0
        },
        {
            "english": "hold",
            "chinese": "举行",
            "pinyin": "jǔxíng",
            "state": "New",
            "last_reviewed_session": 0
        },
        {
            "english": "refuse",
            "chinese": "拒绝",
            "pinyin": "jùjué",
            "state": "New",
            "last_reviewed_session": 0
        },
        {
            "english": "distance",
            "chinese": "距离",
            "pinyin": "jùlí",
            "state": "New",
            "last_reviewed_session": 0
        },
        {
            "english": "Party",
            "chinese": "聚会",
            "pinyin": "jùhuì",
            "state": "New",
            "last_reviewed_session": 0
        },
        {
            "english": "Make fun of",
            "chinese": "开玩笑",
            "pinyin": "kāiwánxiào",
            "state": "New",
            "last_reviewed_session": 0
        },
        {
            "english": "Happy",
            "chinese": "开心",
            "pinyin": "kāixīn",
            "state": "New",
            "last_reviewed_session": 0
        },
        {
            "english": "view",
            "chinese": "看法",
            "pinyin": "kànfǎ",
            "state": "New",
            "last_reviewed_session": 0
        },
        {
            "english": "Consider",
            "chinese": "考虑",
            "pinyin": "kǎolǜ",
            "state": "New",
            "last_reviewed_session": 0
        },
        {
            "english": "Roasted Duck",
            "chinese": "烤鸭",
            "pinyin": "kǎoyā",
            "state": "New",
            "last_reviewed_session": 0
        },
        {
            "english": "Tree (measure word)",
            "chinese": "棵",
            "pinyin": "kē",
            "state": "New",
            "last_reviewed_session": 0
        },
        {
            "english": "science",
            "chinese": "科学",
            "pinyin": "kēxué",
            "state": "New",
            "last_reviewed_session": 0
        },
        {
            "english": "cough",
            "chinese": "咳嗽",
            "pinyin": "késou",
            "state": "New",
            "last_reviewed_session": 0
        },
        {
            "english": "Poor",
            "chinese": "可怜",
            "pinyin": "kělián",
            "state": "New",
            "last_reviewed_session": 0
        },
        {
            "english": "however",
            "chinese": "可是",
            "pinyin": "kěshì",
            "state": "New",
            "last_reviewed_session": 0
        },
        {
            "english": "unfortunately",
            "chinese": "可惜",
            "pinyin": "kěxī",
            "state": "New",
            "last_reviewed_session": 0
        },
        {
            "english": "A living room",
            "chinese": "客厅",
            "pinyin": "kètīng",
            "state": "New",
            "last_reviewed_session": 0
        },
        {
            "english": "sure",
            "chinese": "肯定",
            "pinyin": "kěndìng",
            "state": "New",
            "last_reviewed_session": 0
        },
        {
            "english": "empty",
            "chinese": "空",
            "pinyin": "kōng",
            "state": "New",
            "last_reviewed_session": 0
        },
        {
            "english": "air",
            "chinese": "空气",
            "pinyin": "kōngqì",
            "state": "New",
            "last_reviewed_session": 0
        },
        {
            "english": "I’m afraid",
            "chinese": "恐怕",
            "pinyin": "kǒngpà",
            "state": "New",
            "last_reviewed_session": 0
        },
        {
            "english": "bitter",
            "chinese": "苦",
            "pinyin": "kǔ",
            "state": "New",
            "last_reviewed_session": 0
        },
        {
            "english": "Mineral water",
            "chinese": "矿泉水",
            "pinyin": "kuàngquánshuǐ",
            "state": "New",
            "last_reviewed_session": 0
        },
        {
            "english": "sleepy",
            "chinese": "困",
            "pinyin": "kùn",
            "state": "New",
            "last_reviewed_session": 0
        },
        {
            "english": "difficulty",
            "chinese": "困难",
            "pinyin": "kùnnan",
            "state": "New",
            "last_reviewed_session": 0
        },
        {
            "english": "pull",
            "chinese": "拉",
            "pinyin": "lā",
            "state": "New",
            "last_reviewed_session": 0
        },
        {
            "english": "Trash",
            "chinese": "垃圾桶",
            "pinyin": "lājītǒng",
            "state": "New",
            "last_reviewed_session": 0
        },
        {
            "english": "spicy",
            "chinese": "辣",
            "pinyin": "là",
            "state": "New",
            "last_reviewed_session": 0
        },
        {
            "english": "Come from",
            "chinese": "来自",
            "pinyin": "láizì",
            "state": "New",
            "last_reviewed_session": 0
        },
        {
            "english": "There’s not enough time",
            "chinese": "来不及",
            "pinyin": "láibují",
            "state": "New",
            "last_reviewed_session": 0
        },
        {
            "english": "In time",
            "chinese": "来得及",
            "pinyin": "láidejí",
            "state": "New",
            "last_reviewed_session": 0
        },
        {
            "english": "lazy",
            "chinese": "懒",
            "pinyin": "lǎn",
            "state": "New",
            "last_reviewed_session": 0
        },
        {
            "english": "Waste",
            "chinese": "浪费",
            "pinyin": "làngfèi",
            "state": "New",
            "last_reviewed_session": 0
        },
        {
            "english": "romantic",
            "chinese": "浪漫",
            "pinyin": "làngmàn",
            "state": "New",
            "last_reviewed_session": 0
        },
        {
            "english": "Tiger",
            "chinese": "老虎",
            "pinyin": "lǎohǔ",
            "state": "New",
            "last_reviewed_session": 0
        },
        {
            "english": "calm down",
            "chinese": "冷静",
            "pinyin": "lěngjìng",
            "state": "New",
            "last_reviewed_session": 0
        },
        {
            "english": "Haircut",
            "chinese": "理发",
            "pinyin": "lǐfà",
            "state": "New",
            "last_reviewed_session": 0
        },
        {
            "english": "Understand",
            "chinese": "理解",
            "pinyin": "lǐjiě",
            "state": "New",
            "last_reviewed_session": 0
        },
        {
            "english": "ideal",
            "chinese": "理想",
            "pinyin": "lǐxiǎng",
            "state": "New",
            "last_reviewed_session": 0
        },
        {
            "english": "politeness",
            "chinese": "礼貌",
            "pinyin": "lǐmào",
            "state": "New",
            "last_reviewed_session": 0
        },
        {
            "english": "Sunday",
            "chinese": "礼拜天",
            "pinyin": "lǐbàitiān",
            "state": "New",
            "last_reviewed_session": 0
        },
        {
            "english": "Fierce",
            "chinese": "厉害",
            "pinyin": "lìhai",
            "state": "New",
            "last_reviewed_session": 0
        },
        {
            "english": "Strength",
            "chinese": "力气",
            "pinyin": "lìqi",
            "state": "New",
            "last_reviewed_session": 0
        },
        {
            "english": "for example",
            "chinese": "例如",
            "pinyin": "lìrú",
            "state": "New",
            "last_reviewed_session": 0
        },
        {
            "english": "Two",
            "chinese": "俩",
            "pinyin": "liǎ",
            "state": "New",
            "last_reviewed_session": 0
        },
        {
            "english": "even",
            "chinese": "连",
            "pinyin": "lián",
            "state": "New",
            "last_reviewed_session": 0
        },
        {
            "english": "contact",
            "chinese": "联系",
            "pinyin": "liánxì",
            "state": "New",
            "last_reviewed_session": 0
        },
        {
            "english": "Pleasantly cool",
            "chinese": "凉快",
            "pinyin": "liángkuai",
            "state": "New",
            "last_reviewed_session": 0
        },
        {
            "english": "Small change",
            "chinese": "零钱",
            "pinyin": "língqián",
            "state": "New",
            "last_reviewed_session": 0
        },
        {
            "english": "in addition",
            "chinese": "另外",
            "pinyin": "lìngwài",
            "state": "New",
            "last_reviewed_session": 0
        },
        {
            "english": "stay",
            "chinese": "留",
            "pinyin": "liú",
            "state": "New",
            "last_reviewed_session": 0
        },
        {
            "english": "fluent",
            "chinese": "流利",
            "pinyin": "liúlì",
            "state": "New",
            "last_reviewed_session": 0
        },
        {
            "english": "Popular",
            "chinese": "流行",
            "pinyin": "liúxíng",
            "state": "New",
            "last_reviewed_session": 0
        },
        {
            "english": "chaos",
            "chinese": "乱",
            "pinyin": "luàn",
            "state": "New",
            "last_reviewed_session": 0
        },
        {
            "english": "travel",
            "chinese": "旅行",
            "pinyin": "lǚxíng",
            "state": "New",
            "last_reviewed_session": 0
        },
        {
            "english": "Lawyer",
            "chinese": "律师",
            "pinyin": "lǜshī",
            "state": "New",
            "last_reviewed_session": 0
        },
        {
            "english": "trouble",
            "chinese": "麻烦",
            "pinyin": "máfan",
            "state": "New",
            "last_reviewed_session": 0
        },
        {
            "english": "Careless",
            "chinese": "马虎",
            "pinyin": "mǎhu",
            "state": "New",
            "last_reviewed_session": 0
        },
        {
            "english": "full",
            "chinese": "满",
            "pinyin": "mǎn",
            "state": "New",
            "last_reviewed_session": 0
        },
        {
            "english": "hair",
            "chinese": "毛",
            "pinyin": "máo",
            "state": "New",
            "last_reviewed_session": 0
        },
        {
            "english": "Towel",
            "chinese": "毛巾",
            "pinyin": "máojīn",
            "state": "New",
            "last_reviewed_session": 0
        },
        {
            "english": "beautiful",
            "chinese": "美丽",
            "pinyin": "měilì",
            "state": "New",
            "last_reviewed_session": 0
        },
        {
            "english": "dream",
            "chinese": "梦",
            "pinyin": "mèng",
            "state": "New",
            "last_reviewed_session": 0
        },
        {
            "english": "Get lost",
            "chinese": "迷路",
            "pinyin": "mílù",
            "state": "New",
            "last_reviewed_session": 0
        },
        {
            "english": "Password",
            "chinese": "密码",
            "pinyin": "mìmǎ",
            "state": "New",
            "last_reviewed_session": 0
        },
        {
            "english": "Free of charge",
            "chinese": "免费",
            "pinyin": "miǎnfèi",
            "state": "New",
            "last_reviewed_session": 0
        },
        {
            "english": "second",
            "chinese": "秒",
            "pinyin": "miǎo",
            "state": "New",
            "last_reviewed_session": 0
        },
        {
            "english": "Nation",
            "chinese": "民族",
            "pinyin": "mínzú",
            "state": "New",
            "last_reviewed_session": 0
        },
        {
            "english": "mother",
            "chinese": "母亲",
            "pinyin": "mǔqīn",
            "state": "New",
            "last_reviewed_session": 0
        },
        {
            "english": "objective",
            "chinese": "目的",
            "pinyin": "mùdì",
            "state": "New",
            "last_reviewed_session": 0
        },
        {
            "english": "patience",
            "chinese": "耐心",
            "pinyin": "nàixīn",
            "state": "New",
            "last_reviewed_session": 0
        },
        {
            "english": "could it be said that …",
            "chinese": "难道",
            "pinyin": "nándào",
            "state": "New",
            "last_reviewed_session": 0
        },
        {
            "english": "Uncomfortable",
            "chinese": "难受",
            "pinyin": "nánshòu",
            "state": "New",
            "last_reviewed_session": 0
        },
        {
            "english": "within",
            "chinese": "内",
            "pinyin": "nèi",
            "state": "New",
            "last_reviewed_session": 0
        },
        {
            "english": "content",
            "chinese": "内容",
            "pinyin": "nèiróng",
            "state": "New",
            "last_reviewed_session": 0
        },
        {
            "english": "ability",
            "chinese": "能力",
            "pinyin": "nénglì",
            "state": "New",
            "last_reviewed_session": 0
        },
        {
            "english": "Age",
            "chinese": "年龄",
            "pinyin": "niánlíng",
            "state": "New",
            "last_reviewed_session": 0
        },
        {
            "english": "get, make",
            "chinese": "弄",
            "pinyin": "nòng",
            "state": "New",
            "last_reviewed_session": 0
        },
        {
            "english": "warm",
            "chinese": "暖和",
            "pinyin": "nuǎnhuo",
            "state": "New",
            "last_reviewed_session": 0
        },
        {
            "english": "occasionally",
            "chinese": "偶尔",
            "pinyin": "ǒu’ěr",
            "state": "New",
            "last_reviewed_session": 0
        },
        {
            "english": "queue; stand in a line",
            "chinese": "排队",
            "pinyin": "páiduì",
            "state": "New",
            "last_reviewed_session": 0
        },
        {
            "english": "array",
            "chinese": "排列",
            "pinyin": "páiliè",
            "state": "New",
            "last_reviewed_session": 0
        },
        {
            "english": "judge",
            "chinese": "判断",
            "pinyin": "pànduàn",
            "state": "New",
            "last_reviewed_session": 0
        },
        {
            "english": "accompany",
            "chinese": "陪",
            "pinyin": "péi",
            "state": "New",
            "last_reviewed_session": 0
        },
        {
            "english": "criticism",
            "chinese": "批评",
            "pinyin": "pīpíng",
            "state": "New",
            "last_reviewed_session": 0
        },
        {
            "english": "skin",
            "chinese": "皮肤",
            "pinyin": "pífū",
            "state": "New",
            "last_reviewed_session": 0
        },
        {
            "english": "Bad temper",
            "chinese": "脾气",
            "pinyin": "píqi",
            "state": "New",
            "last_reviewed_session": 0
        },
        {
            "english": "piece",
            "chinese": "篇",
            "pinyin": "piān",
            "state": "New",
            "last_reviewed_session": 0
        },
        {
            "english": "fool",
            "chinese": "骗",
            "pinyin": "piàn",
            "state": "New",
            "last_reviewed_session": 0
        },
        {
            "english": "Table Tennis",
            "chinese": "乒乓球",
            "pinyin": "pīngpāngqiú",
            "state": "New",
            "last_reviewed_session": 0
        },
        {
            "english": "peacetime",
            "chinese": "平时",
            "pinyin": "píngshí",
            "state": "New",
            "last_reviewed_session": 0
        },
        {
            "english": "broken",
            "chinese": "破",
            "pinyin": "pò",
            "state": "New",
            "last_reviewed_session": 0
        },
        {
            "english": "Grape",
            "chinese": "葡萄",
            "pinyin": "pútao",
            "state": "New",
            "last_reviewed_session": 0
        },
        {
            "english": "universal",
            "chinese": "普遍",
            "pinyin": "pǔbiàn",
            "state": "New",
            "last_reviewed_session": 0
        },
        {
            "english": "Mandarin",
            "chinese": "普通话",
            "pinyin": "pǔtōnghuà",
            "state": "New",
            "last_reviewed_session": 0
        },
        {
            "english": "Secondly",
            "chinese": "其次",
            "pinyin": "qícì",
            "state": "New",
            "last_reviewed_session": 0
        },
        {
            "english": "among",
            "chinese": "其中",
            "pinyin": "qízhōng",
            "state": "New",
            "last_reviewed_session": 0
        },
        {
            "english": "climate",
            "chinese": "气候",
            "pinyin": "qìhòu",
            "state": "New",
            "last_reviewed_session": 0
        },
        {
            "english": "Must",
            "chinese": "千万",
            "pinyin": "qiānwàn",
            "state": "New",
            "last_reviewed_session": 0
        },
        {
            "english": "visa",
            "chinese": "签证",
            "pinyin": "qiānzhèng",
            "state": "New",
            "last_reviewed_session": 0
        },
        {
            "english": "knock",
            "chinese": "敲",
            "pinyin": "qiāo",
            "state": "New",
            "last_reviewed_session": 0
        },
        {
            "english": "Bridge",
            "chinese": "桥",
            "pinyin": "qiáo",
            "state": "New",
            "last_reviewed_session": 0
        },
        {
            "english": "Chocolates",
            "chinese": "巧克力",
            "pinyin": "qiǎokèlì",
            "state": "New",
            "last_reviewed_session": 0
        },
        {
            "english": "Relative",
            "chinese": "亲戚",
            "pinyin": "qīnqi",
            "state": "New",
            "last_reviewed_session": 0
        },
        {
            "english": "light",
            "chinese": "轻",
            "pinyin": "qīng",
            "state": "New",
            "last_reviewed_session": 0
        },
        {
            "english": "Relaxed",
            "chinese": "轻松",
            "pinyin": "qīngsōng",
            "state": "New",
            "last_reviewed_session": 0
        },
        {
            "english": "Situation",
            "chinese": "情况",
            "pinyin": "qíngkuàng",
            "state": "New",
            "last_reviewed_session": 0
        },
        {
            "english": "poor",
            "chinese": "穷",
            "pinyin": "qióng",
            "state": "New",
            "last_reviewed_session": 0
        },
        {
            "english": "Difference",
            "chinese": "区别",
            "pinyin": "qūbié",
            "state": "New",
            "last_reviewed_session": 0
        },
        {
            "english": "take",
            "chinese": "取",
            "pinyin": "qǔ",
            "state": "New",
            "last_reviewed_session": 0
        },
        {
            "english": "whole",
            "chinese": "全部",
            "pinyin": "quánbù",
            "state": "New",
            "last_reviewed_session": 0
        },
        {
            "english": "shortcoming",
            "chinese": "缺点",
            "pinyin": "quēdiǎn",
            "state": "New",
            "last_reviewed_session": 0
        },
        {
            "english": "Lack",
            "chinese": "缺少",
            "pinyin": "quēshǎo",
            "state": "New",
            "last_reviewed_session": 0
        },
        {
            "english": "but",
            "chinese": "却",
            "pinyin": "què",
            "state": "New",
            "last_reviewed_session": 0
        },
        {
            "english": "Exactly",
            "chinese": "确实",
            "pinyin": "quèshí",
            "state": "New",
            "last_reviewed_session": 0
        },
        {
            "english": "however",
            "chinese": "然而",
            "pinyin": "rán’ér",
            "state": "New",
            "last_reviewed_session": 0
        },
        {
            "english": "lively",
            "chinese": "热闹",
            "pinyin": "rènao",
            "state": "New",
            "last_reviewed_session": 0
        },
        {
            "english": "whatever, any",
            "chinese": "任何",
            "pinyin": "rènhé",
            "state": "New",
            "last_reviewed_session": 0
        },
        {
            "english": "task",
            "chinese": "任务",
            "pinyin": "rènwu",
            "state": "New",
            "last_reviewed_session": 0
        },
        {
            "english": "throw",
            "chinese": "扔",
            "pinyin": "rēng",
            "state": "New",
            "last_reviewed_session": 0
        },
        {
            "english": "still",
            "chinese": "仍然",
            "pinyin": "réngrán",
            "state": "New",
            "last_reviewed_session": 0
        },
        {
            "english": "diary",
            "chinese": "日记",
            "pinyin": "rìjì",
            "state": "New",
            "last_reviewed_session": 0
        },
        {
            "english": "Entrance",
            "chinese": "入口",
            "pinyin": "rùkǒu",
            "state": "New",
            "last_reviewed_session": 0
        },
        {
            "english": "Take a walk",
            "chinese": "散步",
            "pinyin": "sànbù",
            "state": "New",
            "last_reviewed_session": 0
        },
        {
            "english": "Forest",
            "chinese": "森林",
            "pinyin": "sēnlín",
            "state": "New",
            "last_reviewed_session": 0
        },
        {
            "english": "Sofa",
            "chinese": "沙发",
            "pinyin": "shāfā",
            "state": "New",
            "last_reviewed_session": 0
        },
        {
            "english": "discuss",
            "chinese": "商量",
            "pinyin": "shāngliang",
            "state": "New",
            "last_reviewed_session": 0
        },
        {
            "english": "Sad",
            "chinese": "伤心",
            "pinyin": "shāngxīn",
            "state": "New",
            "last_reviewed_session": 0
        },
        {
            "english": "slightly",
            "chinese": "稍微",
            "pinyin": "shāowēi",
            "state": "New",
            "last_reviewed_session": 0
        },
        {
            "english": "Spoon",
            "chinese": "勺子",
            "pinyin": "sháozi",
            "state": "New",
            "last_reviewed_session": 0
        },
        {
            "english": "Sociology",
            "chinese": "社会",
            "pinyin": "shèhuì",
            "state": "New",
            "last_reviewed_session": 0
        },
        {
            "english": "deep",
            "chinese": "深",
            "pinyin": "shēn",
            "state": "New",
            "last_reviewed_session": 0
        },
        {
            "english": "Apply",
            "chinese": "申请",
            "pinyin": "shēnqǐng",
            "state": "New",
            "last_reviewed_session": 0
        },
        {
            "english": "Even to the extent that",
            "chinese": "甚至",
            "pinyin": "shènzhì",
            "state": "New",
            "last_reviewed_session": 0
        },
        {
            "english": "Life",
            "chinese": "生活",
            "pinyin": "shēnghuó",
            "state": "New",
            "last_reviewed_session": 0
        },
        {
            "english": "life",
            "chinese": "生命",
            "pinyin": "shēngmìng",
            "state": "New",
            "last_reviewed_session": 0
        },
        {
            "english": "business",
            "chinese": "生意",
            "pinyin": "shēngyi",
            "state": "New",
            "last_reviewed_session": 0
        },
        {
            "english": "province",
            "chinese": "省",
            "pinyin": "shěng",
            "state": "New",
            "last_reviewed_session": 0
        },
        {
            "english": "Left",
            "chinese": "剩",
            "pinyin": "shèng",
            "state": "New",
            "last_reviewed_session": 0
        },
        {
            "english": "fail",
            "chinese": "失败",
            "pinyin": "shībài",
            "state": "New",
            "last_reviewed_session": 0
        },
        {
            "english": "Disappointment",
            "chinese": "失望",
            "pinyin": "shīwàng",
            "state": "New",
            "last_reviewed_session": 0
        },
        {
            "english": "Master worker",
            "chinese": "师傅",
            "pinyin": "shīfu",
            "state": "New",
            "last_reviewed_session": 0
        },
        {
            "english": "very",
            "chinese": "十分",
            "pinyin": "shífēn",
            "state": "New",
            "last_reviewed_session": 0
        },
        {
            "english": "Actual",
            "chinese": "实际",
            "pinyin": "shíjì",
            "state": "New",
            "last_reviewed_session": 0
        },
        {
            "english": "really",
            "chinese": "实在",
            "pinyin": "shízài",
            "state": "New",
            "last_reviewed_session": 0
        },
        {
            "english": "make",
            "chinese": "使",
            "pinyin": "shǐ",
            "state": "New",
            "last_reviewed_session": 0
        },
        {
            "english": "Use",
            "chinese": "使用",
            "pinyin": "shǐyòng",
            "state": "New",
            "last_reviewed_session": 0
        },
        {
            "english": "Whether",
            "chinese": "是否",
            "pinyin": "shìfǒu",
            "state": "New",
            "last_reviewed_session": 0
        },
        {
            "english": "Fit",
            "chinese": "适合",
            "pinyin": "shìhé",
            "state": "New",
            "last_reviewed_session": 0
        },
        {
            "english": "Adapt",
            "chinese": "适应",
            "pinyin": "shìyìng",
            "state": "New",
            "last_reviewed_session": 0
        },
        {
            "english": "century",
            "chinese": "世纪",
            "pinyin": "shìjì",
            "state": "New",
            "last_reviewed_session": 0
        },
        {
            "english": "collect",
            "chinese": "收",
            "pinyin": "shōu",
            "state": "New",
            "last_reviewed_session": 0
        },
        {
            "english": "income",
            "chinese": "收入",
            "pinyin": "shōurù",
            "state": "New",
            "last_reviewed_session": 0
        },
        {
            "english": "Tidy",
            "chinese": "收拾",
            "pinyin": "shōushi",
            "state": "New",
            "last_reviewed_session": 0
        },
        {
            "english": "capital",
            "chinese": "首都",
            "pinyin": "shǒudū",
            "state": "New",
            "last_reviewed_session": 0
        },
        {
            "english": "First",
            "chinese": "首先",
            "pinyin": "shǒuxiān",
            "state": "New",
            "last_reviewed_session": 0
        },
        {
            "english": "Cannot bear sth",
            "chinese": "受不了",
            "pinyin": "shòubuliǎo",
            "state": "New",
            "last_reviewed_session": 0
        },
        {
            "english": "Suffer",
            "chinese": "受到",
            "pinyin": "shòudào",
            "state": "New",
            "last_reviewed_session": 0
        },
        {
            "english": "Salesperson",
            "chinese": "售货员",
            "pinyin": "shòuhuòyuán",
            "state": "New",
            "last_reviewed_session": 0
        },
        {
            "english": "lose, fail",
            "chinese": "输",
            "pinyin": "shū",
            "state": "New",
            "last_reviewed_session": 0
        },
        {
            "english": "be familiar with",
            "chinese": "熟悉",
            "pinyin": "shúxī",
            "state": "New",
            "last_reviewed_session": 0
        },
        {
            "english": "Number",
            "chinese": "数量",
            "pinyin": "shùliàng",
            "state": "New",
            "last_reviewed_session": 0
        },
        {
            "english": "number",
            "chinese": "数字",
            "pinyin": "shùzì",
            "state": "New",
            "last_reviewed_session": 0
        },
        {
            "english": "Handsome",
            "chinese": "帅",
            "pinyin": "shuài",
            "state": "New",
            "last_reviewed_session": 0
        },
        {
            "english": "Incidentally",
            "chinese": "顺便",
            "pinyin": "shùnbiàn",
            "state": "New",
            "last_reviewed_session": 0
        },
        {
            "english": "smoothly",
            "chinese": "顺利",
            "pinyin": "shùnlì",
            "state": "New",
            "last_reviewed_session": 0
        },
        {
            "english": "order",
            "chinese": "顺序",
            "pinyin": "shùnxù",
            "state": "New",
            "last_reviewed_session": 0
        },
        {
            "english": "Explain",
            "chinese": "说明",
            "pinyin": "shuōmíng",
            "state": "New",
            "last_reviewed_session": 0
        },
        {
            "english": "master",
            "chinese": "硕士",
            "pinyin": "shuòshì",
            "state": "New",
            "last_reviewed_session": 0
        },
        {
            "english": "die",
            "chinese": "死",
            "pinyin": "sǐ",
            "state": "New",
            "last_reviewed_session": 0
        },
        {
            "english": "speed",
            "chinese": "速度",
            "pinyin": "sùdù",
            "state": "New",
            "last_reviewed_session": 0
        },
        {
            "english": "Plastic bag",
            "chinese": "塑料袋",
            "pinyin": "sùliàodài",
            "state": "New",
            "last_reviewed_session": 0
        },
        {
            "english": "acid",
            "chinese": "酸",
            "pinyin": "suān",
            "state": "New",
            "last_reviewed_session": 0
        },
        {
            "english": "casual",
            "chinese": "随便",
            "pinyin": "suíbiàn",
            "state": "New",
            "last_reviewed_session": 0
        },
        {
            "english": "along with",
            "chinese": "随着",
            "pinyin": "suízhe",
            "state": "New",
            "last_reviewed_session": 0
        },
        {
            "english": "Grandson",
            "chinese": "孙子",
            "pinyin": "sūnzi",
            "state": "New",
            "last_reviewed_session": 0
        },
        {
            "english": "All",
            "chinese": "所有",
            "pinyin": "suǒyǒu",
            "state": "New",
            "last_reviewed_session": 0
        },
        {
            "english": "platform",
            "chinese": "台",
            "pinyin": "tái",
            "state": "New",
            "last_reviewed_session": 0
        },
        {
            "english": "attitude",
            "chinese": "态度",
            "pinyin": "tàidu",
            "state": "New",
            "last_reviewed_session": 0
        },
        {
            "english": "talk",
            "chinese": "谈",
            "pinyin": "tán",
            "state": "New",
            "last_reviewed_session": 0
        },
        {
            "english": "Play the piano",
            "chinese": "弹钢琴",
            "pinyin": "tángāngqín",
            "state": "New",
            "last_reviewed_session": 0
        },
        {
            "english": "soup",
            "chinese": "汤",
            "pinyin": "tāng",
            "state": "New",
            "last_reviewed_session": 0
        },
        {
            "english": "sugar",
            "chinese": "糖",
            "pinyin": "táng",
            "state": "New",
            "last_reviewed_session": 0
        },
        {
            "english": "lie",
            "chinese": "躺",
            "pinyin": "tǎng",
            "state": "New",
            "last_reviewed_session": 0
        },
        {
            "english": "Trip",
            "chinese": "趟",
            "pinyin": "tàng",
            "state": "New",
            "last_reviewed_session": 0
        },
        {
            "english": "discuss",
            "chinese": "讨论",
            "pinyin": "tǎolùn",
            "state": "New",
            "last_reviewed_session": 0
        },
        {
            "english": "Hate",
            "chinese": "讨厌",
            "pinyin": "tǎoyàn",
            "state": "New",
            "last_reviewed_session": 0
        },
        {
            "english": "Characteristic",
            "chinese": "特点",
            "pinyin": "tèdiǎn",
            "state": "New",
            "last_reviewed_session": 0
        },
        {
            "english": "provide",
            "chinese": "提供",
            "pinyin": "tígōng",
            "state": "New",
            "last_reviewed_session": 0
        },
        {
            "english": "in advance",
            "chinese": "提前",
            "pinyin": "tíqián",
            "state": "New",
            "last_reviewed_session": 0
        },
        {
            "english": "remind",
            "chinese": "提醒",
            "pinyin": "tíxǐng",
            "state": "New",
            "last_reviewed_session": 0
        },
        {
            "english": "Fill in the blanks",
            "chinese": "填空",
            "pinyin": "tiánkòng",
            "state": "New",
            "last_reviewed_session": 0
        },
        {
            "english": "condition",
            "chinese": "条件",
            "pinyin": "tiáojiàn",
            "state": "New",
            "last_reviewed_session": 0
        },
        {
            "english": "Stop",
            "chinese": "停",
            "pinyin": "tíng",
            "state": "New",
            "last_reviewed_session": 0
        },
        {
            "english": "quite",
            "chinese": "挺",
            "pinyin": "tǐng",
            "state": "New",
            "last_reviewed_session": 0
        },
        {
            "english": "through",
            "chinese": "通过",
            "pinyin": "tōngguò",
            "state": "New",
            "last_reviewed_session": 0
        },
        {
            "english": "notice",
            "chinese": "通知",
            "pinyin": "tōngzhī",
            "state": "New",
            "last_reviewed_session": 0
        },
        {
            "english": "meanwhile",
            "chinese": "同时",
            "pinyin": "tóngshí",
            "state": "New",
            "last_reviewed_session": 0
        },
        {
            "english": "Sympathy",
            "chinese": "同情",
            "pinyin": "tóngqíng",
            "state": "New",
            "last_reviewed_session": 0
        },
        {
            "english": "push",
            "chinese": "推",
            "pinyin": "tuī",
            "state": "New",
            "last_reviewed_session": 0
        },
        {
            "english": "delay",
            "chinese": "推迟",
            "pinyin": "tuīchí",
            "state": "New",
            "last_reviewed_session": 0
        },
        {
            "english": "take off",
            "chinese": "脱",
            "pinyin": "tuō",
            "state": "New",
            "last_reviewed_session": 0
        },
        {
            "english": "Socks",
            "chinese": "袜子",
            "pinyin": "wàzi",
            "state": "New",
            "last_reviewed_session": 0
        },
        {
            "english": "completely",
            "chinese": "完全",
            "pinyin": "wánquán",
            "state": "New",
            "last_reviewed_session": 0
        },
        {
            "english": "Often",
            "chinese": "往往",
            "pinyin": "wǎngwǎng",
            "state": "New",
            "last_reviewed_session": 0
        },
        {
            "english": "Tennis",
            "chinese": "网球",
            "pinyin": "wǎngqiú",
            "state": "New",
            "last_reviewed_session": 0
        },
        {
            "english": "website",
            "chinese": "网站",
            "pinyin": "wǎngzhàn",
            "state": "New",
            "last_reviewed_session": 0
        },
        {
            "english": "danger",
            "chinese": "危险",
            "pinyin": "wēixiǎn",
            "state": "New",
            "last_reviewed_session": 0
        },
        {
            "english": "taste",
            "chinese": "味道",
            "pinyin": "wèidào",
            "state": "New",
            "last_reviewed_session": 0
        },
        {
            "english": "toilet",
            "chinese": "卫生间",
            "pinyin": "wèishēngjiān",
            "state": "New",
            "last_reviewed_session": 0
        },
        {
            "english": "temperature",
            "chinese": "温度",
            "pinyin": "wēndù",
            "state": "New",
            "last_reviewed_session": 0
        },
        {
            "english": "Article",
            "chinese": "文章",
            "pinyin": "wénzhāng",
            "state": "New",
            "last_reviewed_session": 0
        },
        {
            "english": "contaminated",
            "chinese": "污染",
            "pinyin": "wūrǎn",
            "state": "New",
            "last_reviewed_session": 0
        },
        {
            "english": "nothing",
            "chinese": "无",
            "pinyin": "wú",
            "state": "New",
            "last_reviewed_session": 0
        },
        {
            "english": "Boring",
            "chinese": "无聊",
            "pinyin": "wúliáo",
            "state": "New",
            "last_reviewed_session": 0
        },
        {
            "english": "no matter what",
            "chinese": "无论",
            "pinyin": "wúlùn",
            "state": "New",
            "last_reviewed_session": 0
        },
        {
            "english": "Misunderstanding",
            "chinese": "误会",
            "pinyin": "wùhuì",
            "state": "New",
            "last_reviewed_session": 0
        },
        {
            "english": "Tomato",
            "chinese": "西红柿",
            "pinyin": "xīhóngshì",
            "state": "New",
            "last_reviewed_session": 0
        },
        {
            "english": "Attract",
            "chinese": "吸引",
            "pinyin": "xīyǐn",
            "state": "New",
            "last_reviewed_session": 0
        },
        {
            "english": "salty",
            "chinese": "咸",
            "pinyin": "xián",
            "state": "New",
            "last_reviewed_session": 0
        },
        {
            "english": "cash",
            "chinese": "现金",
            "pinyin": "xiànjīn",
            "state": "New",
            "last_reviewed_session": 0
        },
        {
            "english": "Envy",
            "chinese": "羡慕",
            "pinyin": "xiànmù",
            "state": "New",
            "last_reviewed_session": 0
        },
        {
            "english": "fragrant",
            "chinese": "香",
            "pinyin": "xiāng",
            "state": "New",
            "last_reviewed_session": 0
        },
        {
            "english": "Contrary",
            "chinese": "相反",
            "pinyin": "xiāngfǎn",
            "state": "New",
            "last_reviewed_session": 0
        },
        {
            "english": "identical",
            "chinese": "相同",
            "pinyin": "xiāngtóng",
            "state": "New",
            "last_reviewed_session": 0
        },
        {
            "english": "detailed",
            "chinese": "详细",
            "pinyin": "xiángxì",
            "state": "New",
            "last_reviewed_session": 0
        },
        {
            "english": "ring",
            "chinese": "响",
            "pinyin": "xiǎng",
            "state": "New",
            "last_reviewed_session": 0
        },
        {
            "english": "rubber",
            "chinese": "橡皮",
            "pinyin": "xiàngpí",
            "state": "New",
            "last_reviewed_session": 0
        },
        {
            "english": "message",
            "chinese": "消息",
            "pinyin": "xiāoxi",
            "state": "New",
            "last_reviewed_session": 0
        },
        {
            "english": "snack",
            "chinese": "小吃",
            "pinyin": "xiǎochī",
            "state": "New",
            "last_reviewed_session": 0
        },
        {
            "english": "Young fellow",
            "chinese": "小伙子",
            "pinyin": "xiǎohuǒzi",
            "state": "New",
            "last_reviewed_session": 0
        },
        {
            "english": "Novel",
            "chinese": "小说",
            "pinyin": "xiǎoshuō",
            "state": "New",
            "last_reviewed_session": 0
        },
        {
            "english": "joke",
            "chinese": "笑话",
            "pinyin": "xiàohua",
            "state": "New",
            "last_reviewed_session": 0
        },
        {
            "english": "Effect",
            "chinese": "效果",
            "pinyin": "xiàoguǒ",
            "state": "New",
            "last_reviewed_session": 0
        },
        {
            "english": "hard",
            "chinese": "辛苦",
            "pinyin": "xīnkǔ",
            "state": "New",
            "last_reviewed_session": 0
        },
        {
            "english": "mood",
            "chinese": "心情",
            "pinyin": "xīnqíng",
            "state": "New",
            "last_reviewed_session": 0
        },
        {
            "english": "envelope",
            "chinese": "信封",
            "pinyin": "xìnfēng",
            "state": "New",
            "last_reviewed_session": 0
        },
        {
            "english": "information",
            "chinese": "信息",
            "pinyin": "xìnxī",
            "state": "New",
            "last_reviewed_session": 0
        },
        {
            "english": "confidence",
            "chinese": "信心",
            "pinyin": "xìnxīn",
            "state": "New",
            "last_reviewed_session": 0
        },
        {
            "english": "Excitement",
            "chinese": "兴奋",
            "pinyin": "xīngfèn",
            "state": "New",
            "last_reviewed_session": 0
        },
        {
            "english": "That’s ok",
            "chinese": "行",
            "pinyin": "xíng",
            "state": "New",
            "last_reviewed_session": 0
        },
        {
            "english": "wake up",
            "chinese": "醒",
            "pinyin": "xǐng",
            "state": "New",
            "last_reviewed_session": 0
        },
        {
            "english": "Gender",
            "chinese": "性别",
            "pinyin": "xìngbié",
            "state": "New",
            "last_reviewed_session": 0
        },
        {
            "english": "character",
            "chinese": "性格",
            "pinyin": "xìnggé",
            "state": "New",
            "last_reviewed_session": 0
        },
        {
            "english": "happiness",
            "chinese": "幸福",
            "pinyin": "xìngfú",
            "state": "New",
            "last_reviewed_session": 0
        },
        {
            "english": "repair",
            "chinese": "修理 ",
            "pinyin": "xiūlǐ",
            "state": "New",
            "last_reviewed_session": 0
        },
        {
            "english": "many",
            "chinese": "许多",
            "pinyin": "xǔduō",
            "state": "New",
            "last_reviewed_session": 0
        },
        {
            "english": "Semester",
            "chinese": "学期",
            "pinyin": "xuéqī",
            "state": "New",
            "last_reviewed_session": 0
        },
        {
            "english": "pressure",
            "chinese": "压力",
            "pinyin": "yālì",
            "state": "New",
            "last_reviewed_session": 0
        },
        {
            "english": "toothpaste",
            "chinese": "牙膏",
            "pinyin": "yágāo",
            "state": "New",
            "last_reviewed_session": 0
        },
        {
            "english": "Asia",
            "chinese": "亚洲",
            "pinyin": "yàzhōu",
            "state": "New",
            "last_reviewed_session": 0
        },
        {
            "english": "ah",
            "chinese": "呀",
            "pinyin": "ya",
            "state": "New",
            "last_reviewed_session": 0
        },
        {
            "english": "salt",
            "chinese": "盐",
            "pinyin": "yán",
            "state": "New",
            "last_reviewed_session": 0
        },
        {
            "english": "strict",
            "chinese": "严格",
            "pinyin": "yángé",
            "state": "New",
            "last_reviewed_session": 0
        },
        {
            "english": "serious",
            "chinese": "严重",
            "pinyin": "yánzhòng",
            "state": "New",
            "last_reviewed_session": 0
        },
        {
            "english": "research",
            "chinese": "研究",
            "pinyin": "yánjiū",
            "state": "New",
            "last_reviewed_session": 0
        },
        {
            "english": "show",
            "chinese": "演出",
            "pinyin": "yǎnchū",
            "state": "New",
            "last_reviewed_session": 0
        },
        {
            "english": "performer, actor",
            "chinese": "演员",
            "pinyin": "yǎnyuán",
            "state": "New",
            "last_reviewed_session": 0
        },
        {
            "english": "glasses",
            "chinese": "眼镜",
            "pinyin": "yǎnjìng",
            "state": "New",
            "last_reviewed_session": 0
        },
        {
            "english": "Sunshine",
            "chinese": "阳光",
            "pinyin": "yángguāng",
            "state": "New",
            "last_reviewed_session": 0
        },
        {
            "english": "Cultivate",
            "chinese": "养成",
            "pinyin": "yǎngchéng",
            "state": "New",
            "last_reviewed_session": 0
        },
        {
            "english": "A look",
            "chinese": "样子",
            "pinyin": "yàngzi",
            "state": "New",
            "last_reviewed_session": 0
        },
        {
            "english": "Invitation",
            "chinese": "邀请",
            "pinyin": "yāoqǐng",
            "state": "New",
            "last_reviewed_session": 0
        },
        {
            "english": "If",
            "chinese": "要是",
            "pinyin": "yàoshi",
            "state": "New",
            "last_reviewed_session": 0
        },
        {
            "english": "perhaps",
            "chinese": "也许",
            "pinyin": "yěxǔ",
            "state": "New",
            "last_reviewed_session": 0
        },
        {
            "english": "page",
            "chinese": "页",
            "pinyin": "yè",
            "state": "New",
            "last_reviewed_session": 0
        },
        {
            "english": "Leaf",
            "chinese": "叶子",
            "pinyin": "yèzi",
            "state": "New",
            "last_reviewed_session": 0
        },
        {
            "english": "everything",
            "chinese": "一切",
            "pinyin": "yíqiè",
            "state": "New",
            "last_reviewed_session": 0
        },
        {
            "english": "with",
            "chinese": "以",
            "pinyin": "yǐ",
            "state": "New",
            "last_reviewed_session": 0
        },
        {
            "english": "Think",
            "chinese": "以为",
            "pinyin": "yǐwéi",
            "state": "New",
            "last_reviewed_session": 0
        },
        {
            "english": "Opinion",
            "chinese": "意见",
            "pinyin": "yìjiàn",
            "state": "New",
            "last_reviewed_session": 0
        },
        {
            "english": "Art",
            "chinese": "艺术",
            "pinyin": "yìshù",
            "state": "New",
            "last_reviewed_session": 0
        },
        {
            "english": "therefore",
            "chinese": "因此",
            "pinyin": "yīncǐ",
            "state": "New",
            "last_reviewed_session": 0
        },
        {
            "english": "cause",
            "chinese": "引起",
            "pinyin": "yǐnqǐ",
            "state": "New",
            "last_reviewed_session": 0
        },
        {
            "english": "impression",
            "chinese": "印象",
            "pinyin": "yìnxiàng",
            "state": "New",
            "last_reviewed_session": 0
        },
        {
            "english": "Apply for",
            "chinese": "应聘",
            "pinyin": "yìngpìn",
            "state": "New",
            "last_reviewed_session": 0
        },
        {
            "english": "win",
            "chinese": "赢",
            "pinyin": "yíng",
            "state": "New",
            "last_reviewed_session": 0
        },
        {
            "english": "Brave",
            "chinese": "勇敢",
            "pinyin": "yǒnggǎn",
            "state": "New",
            "last_reviewed_session": 0
        },
        {
            "english": "forever",
            "chinese": "永远",
            "pinyin": "yǒngyuǎn",
            "state": "New",
            "last_reviewed_session": 0
        },
        {
            "english": "Advantage",
            "chinese": "优点",
            "pinyin": "yōudiǎn",
            "state": "New",
            "last_reviewed_session": 0
        },
        {
            "english": "excellent",
            "chinese": "优秀",
            "pinyin": "yōuxiù",
            "state": "New",
            "last_reviewed_session": 0
        },
        {
            "english": "Humor",
            "chinese": "幽默",
            "pinyin": "yōumò",
            "state": "New",
            "last_reviewed_session": 0
        },
        {
            "english": "from",
            "chinese": "由",
            "pinyin": "yóu",
            "state": "New",
            "last_reviewed_session": 0
        },
        {
            "english": "Because",
            "chinese": "由于",
            "pinyin": "yóuyú",
            "state": "New",
            "last_reviewed_session": 0
        },
        {
            "english": "Post Office",
            "chinese": "邮局",
            "pinyin": "yóujú",
            "state": "New",
            "last_reviewed_session": 0
        },
        {
            "english": "especially",
            "chinese": "尤其",
            "pinyin": "yóuqí",
            "state": "New",
            "last_reviewed_session": 0
        },
        {
            "english": "interesting",
            "chinese": "有趣",
            "pinyin": "yǒuqù",
            "state": "New",
            "last_reviewed_session": 0
        },
        {
            "english": "friendly",
            "chinese": "友好",
            "pinyin": "yǒuhǎo",
            "state": "New",
            "last_reviewed_session": 0
        },
        {
            "english": "friendship",
            "chinese": "友谊",
            "pinyin": "yǒuyì",
            "state": "New",
            "last_reviewed_session": 0
        },
        {
            "english": "Cheerful",
            "chinese": "愉快",
            "pinyin": "yúkuài",
            "state": "New",
            "last_reviewed_session": 0
        },
        {
            "english": "Therefore",
            "chinese": "于是",
            "pinyin": "yúshì",
            "state": "New",
            "last_reviewed_session": 0
        },
        {
            "english": "and",
            "chinese": "与",
            "pinyin": "yǔ",
            "state": "New",
            "last_reviewed_session": 0
        },
        {
            "english": "grammar",
            "chinese": "语法",
            "pinyin": "yǔfǎ",
            "state": "New",
            "last_reviewed_session": 0
        },
        {
            "english": "language",
            "chinese": "语言",
            "pinyin": "yǔyán",
            "state": "New",
            "last_reviewed_session": 0
        },
        {
            "english": "Badminton",
            "chinese": "羽毛球",
            "pinyin": "yǔmáoqiú",
            "state": "New",
            "last_reviewed_session": 0
        },
        {
            "english": "Preview",
            "chinese": "预习",
            "pinyin": "yùxí",
            "state": "New",
            "last_reviewed_session": 0
        },
        {
            "english": "Original",
            "chinese": "原来",
            "pinyin": "yuánlái",
            "state": "New",
            "last_reviewed_session": 0
        },
        {
            "english": "Forgive",
            "chinese": "原谅",
            "pinyin": "yuánliàng",
            "state": "New",
            "last_reviewed_session": 0
        },
        {
            "english": "Reason",
            "chinese": "原因",
            "pinyin": "yuányīn",
            "state": "New",
            "last_reviewed_session": 0
        },
        {
            "english": "Date",
            "chinese": "约会",
            "pinyin": "yuēhuì",
            "state": "New",
            "last_reviewed_session": 0
        },
        {
            "english": "Read",
            "chinese": "阅读",
            "pinyin": "yuèdú",
            "state": "New",
            "last_reviewed_session": 0
        },
        {
            "english": "cloud",
            "chinese": "云",
            "pinyin": "yún",
            "state": "New",
            "last_reviewed_session": 0
        },
        {
            "english": "allow",
            "chinese": "允许",
            "pinyin": "yǔnxǔ",
            "state": "New",
            "last_reviewed_session": 0
        },
        {
            "english": "Magazine",
            "chinese": "杂志",
            "pinyin": "zázhì",
            "state": "New",
            "last_reviewed_session": 0
        },
        {
            "english": "We",
            "chinese": "咱们",
            "pinyin": "zánmen",
            "state": "New",
            "last_reviewed_session": 0
        },
        {
            "english": "temporary",
            "chinese": "暂时",
            "pinyin": "zànshí",
            "state": "New",
            "last_reviewed_session": 0
        },
        {
            "english": "dirty",
            "chinese": "脏",
            "pinyin": "zāng",
            "state": "New",
            "last_reviewed_session": 0
        },
        {
            "english": "responsibility",
            "chinese": "责任",
            "pinyin": "zérèn",
            "state": "New",
            "last_reviewed_session": 0
        },
        {
            "english": "increase",
            "chinese": "增加",
            "pinyin": "zēngjiā",
            "state": "New",
            "last_reviewed_session": 0
        },
        {
            "english": "(line) Busy",
            "chinese": "占线",
            "pinyin": "zhànxiàn",
            "state": "New",
            "last_reviewed_session": 0
        },
        {
            "english": "recruit",
            "chinese": "招聘",
            "pinyin": "zhāopìn",
            "state": "New",
            "last_reviewed_session": 0
        },
        {
            "english": "reflect",
            "chinese": "照",
            "pinyin": "zhào",
            "state": "New",
            "last_reviewed_session": 0
        },
        {
            "english": "real",
            "chinese": "真正",
            "pinyin": "zhēnzhèng",
            "state": "New",
            "last_reviewed_session": 0
        },
        {
            "english": "Arrangement",
            "chinese": "整理",
            "pinyin": "zhěnglǐ",
            "state": "New",
            "last_reviewed_session": 0
        },
        {
            "english": "normal",
            "chinese": "正常",
            "pinyin": "zhèngcháng",
            "state": "New",
            "last_reviewed_session": 0
        },
        {
            "english": "Just right",
            "chinese": "正好",
            "pinyin": "zhènghǎo",
            "state": "New",
            "last_reviewed_session": 0
        },
        {
            "english": "Correct",
            "chinese": "正确",
            "pinyin": "zhèngquè",
            "state": "New",
            "last_reviewed_session": 0
        },
        {
            "english": "formal",
            "chinese": "正式",
            "pinyin": "zhèngshì",
            "state": "New",
            "last_reviewed_session": 0
        },
        {
            "english": "Prove",
            "chinese": "证明",
            "pinyin": "zhèngmíng",
            "state": "New",
            "last_reviewed_session": 0
        },
        {
            "english": "Support",
            "chinese": "支持",
            "pinyin": "zhīchí",
            "state": "New",
            "last_reviewed_session": 0
        },
        {
            "english": "knowledge",
            "chinese": "知识",
            "pinyin": "zhīshi",
            "state": "New",
            "last_reviewed_session": 0
        },
        {
            "english": "Worth",
            "chinese": "值得",
            "pinyin": "zhídé",
            "state": "New",
            "last_reviewed_session": 0
        },
        {
            "english": "direct",
            "chinese": "直接",
            "pinyin": "zhíjiē",
            "state": "New",
            "last_reviewed_session": 0
        },
        {
            "english": "Botany, plant",
            "chinese": "植物",
            "pinyin": "zhíwù",
            "state": "New",
            "last_reviewed_session": 0
        },
        {
            "english": "Occupation",
            "chinese": "职业",
            "pinyin": "zhíyè",
            "state": "New",
            "last_reviewed_session": 0
        },
        {
            "english": "have to",
            "chinese": "只好",
            "pinyin": "zhǐhǎo",
            "state": "New",
            "last_reviewed_session": 0
        },
        {
            "english": "as long as",
            "chinese": "只要",
            "pinyin": "zhǐyào",
            "state": "New",
            "last_reviewed_session": 0
        },
        {
            "english": "quality",
            "chinese": "质量",
            "pinyin": "zhìliàng",
            "state": "New",
            "last_reviewed_session": 0
        },
        {
            "english": "at least",
            "chinese": "至少",
            "pinyin": "zhìshǎo",
            "state": "New",
            "last_reviewed_session": 0
        },
        {
            "english": "heavy",
            "chinese": "重",
            "pinyin": "zhòng",
            "state": "New",
            "last_reviewed_session": 0
        },
        {
            "english": "A key",
            "chinese": "重点",
            "pinyin": "zhòngdiǎn",
            "state": "New",
            "last_reviewed_session": 0
        },
        {
            "english": "importance, attach importance to",
            "chinese": "重视",
            "pinyin": "zhòngshì",
            "state": "New",
            "last_reviewed_session": 0
        },
        {
            "english": "around",
            "chinese": "周围",
            "pinyin": "zhōuwéi",
            "state": "New",
            "last_reviewed_session": 0
        },
        {
            "english": "idea",
            "chinese": "主意",
            "pinyin": "zhǔyi",
            "state": "New",
            "last_reviewed_session": 0
        },
        {
            "english": "Congratulate",
            "chinese": "祝贺",
            "pinyin": "zhùhè",
            "state": "New",
            "last_reviewed_session": 0
        },
        {
            "english": "famous",
            "chinese": "著名",
            "pinyin": "zhùmíng",
            "state": "New",
            "last_reviewed_session": 0
        },
        {
            "english": "specialized",
            "chinese": "专门",
            "pinyin": "zhuānmén",
            "state": "New",
            "last_reviewed_session": 0
        },
        {
            "english": "major",
            "chinese": "专业",
            "pinyin": "zhuānyè",
            "state": "New",
            "last_reviewed_session": 0
        },
        {
            "english": "turn",
            "chinese": "转",
            "pinyin": "zhuàn",
            "state": "New",
            "last_reviewed_session": 0
        },
        {
            "english": "accuracy",
            "chinese": "准确",
            "pinyin": "zhǔnquè",
            "state": "New",
            "last_reviewed_session": 0
        },
        {
            "english": "on time",
            "chinese": "准时",
            "pinyin": "zhǔnshí",
            "state": "New",
            "last_reviewed_session": 0
        },
        {
            "english": "careful",
            "chinese": "仔细",
            "pinyin": "zǐxì",
            "state": "New",
            "last_reviewed_session": 0
        },
        {
            "english": "natural",
            "chinese": "自然",
            "pinyin": "zìrán",
            "state": "New",
            "last_reviewed_session": 0
        },
        {
            "english": "self-confidence",
            "chinese": "自信",
            "pinyin": "zìxìn",
            "state": "New",
            "last_reviewed_session": 0
        },
        {
            "english": "summary",
            "chinese": "总结",
            "pinyin": "zǒngjié",
            "state": "New",
            "last_reviewed_session": 0
        },
        {
            "english": "rent",
            "chinese": "租",
            "pinyin": "zū",
            "state": "New",
            "last_reviewed_session": 0
        },
        {
            "english": "Best",
            "chinese": "最好",
            "pinyin": "zuìhǎo",
            "state": "New",
            "last_reviewed_session": 0
        },
        {
            "english": "respect",
            "chinese": "尊重",
            "pinyin": "zūnzhòng",
            "state": "New",
            "last_reviewed_session": 0
        },
        {
            "english": "About",
            "chinese": "左右 ",
            "pinyin": "zuǒyòu",
            "state": "New",
            "last_reviewed_session": 0
        },
        {
            "english": "Seat",
            "chinese": "座",
            "pinyin": "zuò",
            "state": "New",
            "last_reviewed_session": 0
        },
        {
            "english": "writer",
            "chinese": "作家",
            "pinyin": "zuòjiā",
            "state": "New",
            "last_reviewed_session": 0
        },
        {
            "english": "seat",
            "chinese": "座位",
            "pinyin": "zuòwèi",
            "state": "New",
            "last_reviewed_session": 0
        },
        {
            "english": "Effect",
            "chinese": "作用",
            "pinyin": "zuòyòng",
            "state": "New",
            "last_reviewed_session": 0
        },
        {
            "english": "author",
            "chinese": "作者",
            "pinyin": "zuòzhě",
            "state": "New",
            "last_reviewed_session": 0
        }
    ],
    "current_session": 0
}